202309040800 METAR VABB 040800Z 28010KT 3000 HZ SCT020 SCT025 31/25 Q1006 NOSIG=
202309040830 METAR VABB 040830Z 27012KT 3000 HZ SCT020 SCT025 31/25 Q1006 NOSIG=
202309040900 METAR VABB 040900Z 27012KT 3000 HZ SCT020 SCT025 32/25 Q1005 NOSIG=
202309040930 METAR VABB 040930Z 28011KT 3000 HZ SCT020 SCT025 31/25 Q1005 NOSIG=
202309041000 METAR VABB 041000Z 29012KT 3000 HZ SCT020 SCT025 31/24 Q1005 NOSIG=
202309041030 METAR VABB 041030Z 26011KT 3000 HZ SCT020 SCT025 30/23 Q1005 NOSIG=
202309041100 METAR VABB 041100Z 29011KT 3500 HZ SCT020 SCT025 31/24 Q1004 NOSIG=
202309041130 METAR VABB 041130Z 29011KT 3500 HZ SCT020 SCT025 31/23 Q1004 NOSIG=
202309041200 METAR VABB 041200Z 29011KT 3500 HZ SCT020 SCT025 30/25 Q1005 NOSIG=
202309041230 METAR VABB 041230Z 30009KT 3500 HZ SCT020 SCT025 30/24 Q1005 NOSIG=
202309041300 METAR VABB 041300Z 31008KT 3500 HZ SCT020 SCT025 29/24 Q1005 NOSIG=
202309041330 METAR VABB 041330Z 30008KT 3000 HZ SCT020 SCT025 29/24 Q1006 NOSIG=
202309041400 METAR VABB 041400Z 29008KT 3000 HZ FEW020 SCT025 29/25 Q1006 NOSIG=
202309041430 METAR VABB 041430Z 28005KT 3000 HZ SCT020 SCT025 29/25 Q1006 NOSIG=
202309041500 METAR VABB 041500Z 28007KT 3000 HZ SCT020 SCT025 29/25 Q1006 NOSIG=
202309041530 METAR VABB 041530Z 30006KT 3000 HZ SCT020 SCT025 29/25 Q1006 NOSIG=
202309041600 METAR VABB 041600Z 27005KT 3000 HZ SCT020 SCT025 29/25 Q1007 NOSIG=
202309041630 METAR VABB 041630Z 29005KT 3000 HZ SCT020 28/25 Q1007 NOSIG=
202309041700 METAR VABB 041700Z 26005KT 3000 HZ SCT020 28/25 Q1007 NOSIG=
202309041730 METAR VABB 041730Z 29004KT 3000 HZ SCT020 SCT025 28/25 Q1007 NOSIG=
202309041800 METAR VABB 041800Z 25003KT 3000 HZ SCT020 SCT025 28/25 Q1007 NOSIG=
202309041830 METAR VABB 041830Z 30004KT 3000 HZ SCT020 SCT025 28/25 Q1007 NOSIG=
202309041900 METAR VABB 041900Z 00000KT 3000 HZ SCT020 SCT025 28/28 Q1007 NOSIG=
202309041930 METAR VABB 041930Z 30004KT 3000 HZ SCT020 SCT025 28/27 Q1007 NOSIG=
202309042000 METAR VABB 042000Z 00000KT 3000 HZ SCT020 SCT025 28/25 Q1006 NOSIG=
202309042030 METAR VABB 042030Z 00000KT 3000 HZ SCT020 SCT025 28/25 Q1006 NOSIG=
202309042100 METAR VABB 042100Z 28006KT 3000 HZ SCT020 SCT025 28/25 Q1006 NOSIG=
202309042130 METAR VABB 042130Z 34004KT 3000 HZ SCT020 SCT025 28/25 Q1006 NOSIG=
202309042200 METAR VABB 042200Z 00000KT 3000 HZ SCT020 SCT025 28/25 Q1005 NOSIG=
202309042230 METAR VABB 042230Z 00000KT 3000 HZ SCT020 SCT025 28/25 Q1006 NOSIG=
202309042300 METAR VABB 042300Z 21004KT 3000 HZ SCT020 SCT025 27/25 Q1005 NOSIG=
202309042330 METAR VABB 042330Z 36005KT 3000 HZ SCT020 SCT025 28/25 Q1006 NOSIG=
202309050000 METAR VABB 050000Z 09004KT 3000 HZ SCT020 SCT025 27/25 Q1006 NOSIG=
202309050030 METAR VABB 050030Z 22003KT 3000 HZ SCT020 SCT025 27/25 Q1006 NOSIG=
202309050100 METAR VABB 050100Z 00000KT 3000 HZ SCT020 SCT025 27/25 Q1006 NOSIG=
202309050130 METAR VABB 050130Z 09004KT 3000 HZ SCT020 SCT025 27/26 Q1007 NOSIG=
202309050200 METAR VABB 050200Z 00000KT 2500 HZ SCT020 SCT025 27/26 Q1007 NOSIG=
202309050230 METAR VABB 050230Z 20003KT 2500 HZ SCT020 SCT025 28/26 Q1007 NOSIG=
202309050300 METAR VABB 050300Z 34003KT 2500 HZ SCT020 SCT025 29/26 Q1007 NOSIG=
202309050330 METAR VABB 050330Z 27004KT 3000 HZ SCT020 SCT025 29/25 Q1008 NOSIG=
202309050400 METAR VABB 050400Z 36004KT 3000 HZ SCT020 SCT025 29/25 Q1008 NOSIG=
202309050430 METAR VABB 050430Z 28006KT 3000 HZ SCT020 SCT025 30/24 Q1008 NOSIG=
202309050500 METAR VABB 050500Z 30007KT 3000 HZ SCT020 SCT025 30/25 Q1008 NOSIG=
202309050530 METAR VABB 050530Z 28008KT 3000 HZ SCT020 SCT025 30/24 Q1007 NOSIG=
202309050600 METAR VABB 050600Z 28010KT 3500 HZ SCT020 SCT025 30/25 Q1007 NOSIG=
202309050630 METAR VABB 050630Z 30007KT 3500 HZ SCT020 SCT025 30/24 Q1007 NOSIG=
202309050700 METAR VABB 050700Z 02007KT 3500 HZ SCT020 SCT025 32/23 Q1006 NOSIG=
202309050730 METAR VABB 050730Z 29011KT 4000 HZ SCT020 SCT025 32/25 Q1006 NOSIG=
202309050800 METAR VABB 050800Z 29009KT 4000 HZ SCT020 SCT025 31/24 Q1006 NOSIG=
202309050830 METAR VABB 050830Z 28012KT 4000 HZ SCT020 SCT025 31/24 Q1005 NOSIG=
202309050900 METAR VABB 050900Z 28007G17KT 4000 HZ SCT020 SCT025 32/25 Q1005 NOSIG=
202309050930 METAR VABB 050930Z 29007G17KT 4000 HZ SCT020 SCT025 32/24 Q1004 NOSIG=
202309051000 METAR VABB 051000Z 29012KT 4000 HZ FEW020 SCT025 31/23 Q1004 NOSIG=
202309051030 METAR VABB 051030Z 30010KT 4000 HZ FEW020 SCT025 31/24 Q1004 NOSIG=
202309051100 METAR VABB 051100Z 01010KT 4000 HZ FEW020 SCT025 32/24 Q1004 NOSIG=
202309051130 METAR VABB 051130Z 30010KT 4000 HZ FEW020 SCT025 31/24 Q1004 NOSIG=
202309051200 METAR VABB 051200Z 30011KT 4000 HZ FEW020 SCT025 30/24 Q1004 NOSIG=
202309051230 METAR VABB 051230Z 30009KT 4000 HZ FEW020 30/24 Q1004 NOSIG=
202309051300 METAR VABB 051300Z 30008KT 4000 HZ FEW020 30/24 Q1004 NOSIG=
202309051330 METAR VABB 051330Z 30008KT 3500 HZ SCT020 30/24 Q1004 NOSIG=
202309051400 METAR VABB 051400Z 30008KT 3500 HZ FEW020 29/25 Q1005 NOSIG=
202309051430 METAR VABB 051430Z 35008KT 3500 HZ FEW020 30/25 Q1005 BECMG 3000 HZ=
202309051500 METAR VABB 051500Z 32005KT 3000 HZ FEW020 29/25 Q1006 NOSIG=
202309051530 METAR VABB 051530Z 30006KT 3000 HZ FEW020 29/25 Q1006 NOSIG=
202309051600 METAR VABB 051600Z 29006KT 3000 HZ FEW020 29/25 Q1006 NOSIG=
202309051630 METAR VABB 051630Z 30005KT 3000 HZ FEW020 29/25 Q1006 NOSIG=
202309051700 METAR VABB 051700Z 30005KT 3000 HZ FEW020 29/25 Q1006 NOSIG=
202309051730 METAR VABB 051730Z 31005KT 3000 HZ SCT020 29/26 Q1006 NOSIG=
202309051800 METAR VABB 051800Z 35005KT 3000 HZ SCT020 29/25 Q1006 NOSIG=
202309051830 METAR VABB 051830Z 29005KT 3000 HZ FEW020 SCT025 29/25 Q1006 NOSIG=
202309051900 METAR VABB 051900Z 29005KT 3000 HZ FEW020 SCT025 28/25 Q1006 NOSIG=
202309051930 METAR VABB 051930Z 31004KT 3000 HZ FEW020 SCT025 28/25 Q1006 NOSIG=
202309052000 METAR VABB 052000Z 27006KT 3000 HZ FEW020 SCT025 28/25 Q1006 NOSIG=
202309052030 METAR VABB 052030Z 29005KT 3000 HZ FEW020 SCT025 28/25 Q1005 NOSIG=
202309052100 METAR VABB 052100Z 29005KT 3000 HZ FEW020 SCT025 28/25 Q1005 NOSIG=
202309052130 METAR VABB 052130Z 31006KT 3000 HZ FEW020 SCT025 28/25 Q1005 NOSIG=
202309052200 METAR VABB 052200Z 28005KT 3000 HZ FEW020 SCT025 28/25 Q1005 NOSIG=
202309052230 METAR VABB 052230Z 30004KT 3000 HZ FEW020 SCT025 28/25 Q1005 NOSIG=
202309052300 METAR VABB 052300Z 29004KT 3000 HZ FEW020 SCT025 28/26 Q1005 NOSIG=
202309052330 METAR VABB 052330Z 29003KT 3000 HZ FEW020 SCT025 28/25 Q1005 NOSIG=
202309060000 METAR VABB 060000Z 00000KT 3000 HZ SCT020 SCT025 28/26 Q1005 NOSIG=
202309060030 METAR VABB 060030Z 33003KT 3000 HZ SCT020 FEW025TCU BKN100 27/26 Q1006 NOSIG=
202309060100 METAR VABB 060100Z 26003KT 2500 HZ SCT018 SCT025 BKN100 28/26 Q1006 NOSIG=
202309060130 METAR VABB 060130Z 30003KT 2500 HZ FEW018 SCT025 28/26 Q1006 NOSIG=
202309060200 METAR VABB 060200Z 29003KT 2500 HZ FEW018 SCT025 BKN100 28/26 Q1006 NOSIG=
202309060230 METAR VABB 060230Z 32005KT 2500 HZ FEW018 SCT025 BKN100 29/26 Q1007 NOSIG=
202309060300 METAR VABB 060300Z 31006KT 2500 HZ FEW018 SCT025 BKN100 29/26 Q1007 NOSIG=
202309060330 METAR VABB 060330Z 28011KT 2500 VCSH FEW012 SCT018 FEW025TCU BKN100 29/26 Q1007 TEMPO 1500 SHRA=
202309060400 METAR VABB 060400Z 03007KT 2500 -RA FEW012 SCT018 FEW025TCU BKN090 27/25 Q1008 TEMPO 1500 SHRA=
202309060430 METAR VABB 060430Z 27005KT 2500 VCSH FEW012 SCT018 FEW025TCU BKN090 29/24 Q1007 NOSIG=
202309060500 METAR VABB 060500Z 27006KT 2500 HZ SCT018 FEW025TCU BKN090 30/26 Q1007 NOSIG=
202309060530 METAR VABB 060530Z 30009KT 2500 HZ SCT018 FEW025TCU BKN090 31/25 Q1007 BECMG 3000 HZ=
202309060600 METAR VABB 060600Z 31006KT 3000 HZ FEW018 SCT025 BKN090 31/25 Q1007 NOSIG=
202309060630 METAR VABB 060630Z 33004KT 3000 HZ FEW018 SCT025 BKN100 31/26 Q1007 NOSIG=
202309060700 METAR VABB 060700Z 30009KT 3000 HZ FEW018 SCT025 BKN100 31/25 Q1006 NOSIG=
202309060730 METAR VABB 060730Z 27011KT 3000 HZ SCT020 SCT025 31/25 Q1006 NOSIG=
202309060800 METAR VABB 060800Z 26007G17KT 3000 HZ SCT020 SCT025 32/25 Q1006 NOSIG=
202309060830 METAR VABB 060830Z 27014KT 3000 HZ SCT020 SCT025 32/24 Q1005 NOSIG=
202309060900 METAR VABB 060900Z 27007G17KT 3000 HZ SCT020 SCT025 32/25 Q1005 NOSIG=
202309060930 METAR VABB 060930Z 28012KT 4000 HZ SCT020 SCT025 32/25 Q1005 NOSIG=
202309061000 METAR VABB 061000Z 27010KT 4000 HZ SCT020 SCT025 31/25 Q1004 NOSIG=
202309061030 METAR VABB 061030Z 29008G18KT 4000 HZ FEW020 SCT025 31/23 Q1004 NOSIG=
202309061100 METAR VABB 061100Z 27011KT 4000 HZ FEW020 SCT025 31/25 Q1004 NOSIG=
202309061130 METAR VABB 061130Z 27011KT 4000 HZ FEW020 SCT025 31/25 Q1004 NOSIG=
202309061200 METAR VABB 061200Z 29007KT 3500 HZ SCT020 SCT025 30/26 Q1004 NOSIG=
202309061230 METAR VABB 061230Z 31007KT 3500 HZ SCT020 SCT025 30/26 Q1004 NOSIG=
202309061300 METAR VABB 061300Z 30008KT 3500 HZ SCT020 SCT025 29/25 Q1004 BECMG 3000 HZ=
202309061330 METAR VABB 061330Z 30008KT 3000 HZ FEW020 SCT025 29/25 Q1005 NOSIG=
202309061400 METAR VABB 061400Z 28006KT 3000 HZ FEW020 SCT100 30/25 Q1005 NOSIG=
202309061430 METAR VABB 061430Z 27007KT 3000 HZ FEW020 SCT100 29/26 Q1006 NOSIG=
202309061500 METAR VABB 061500Z 26008KT 3000 HZ SCT020 SCT100 29/26 Q1006 NOSIG=
202309061530 METAR VABB 061530Z 29007KT 3000 HZ SCT020 SCT100 29/25 Q1006 NOSIG=
202309061630 METAR VABB 061630Z 25010KT 3000 HZ SCT020 SCT100 29/26 Q1006 NOSIG=
202309061700 METAR VABB 061700Z 25009KT 3000 HZ SCT020 SCT100 29/26 Q1007 NOSIG=
202309061730 METAR VABB 061730Z 25008KT 3000 HZ SCT020 SCT100 29/26 Q1007 NOSIG=
202309061800 METAR VABB 061800Z 25010KT 3000 HZ SCT020 SCT100 29/26 Q1006 NOSIG=
202309061830 METAR VABB 061830Z 28008KT 3000 HZ SCT020 SCT100 29/25 Q1006 NOSIG=
202309061900 METAR VABB 061900Z 27010KT 3000 HZ SCT020 SCT025 29/25 Q1005 NOSIG=
202309061930 METAR VABB 061930Z 26010KT 3000 HZ SCT020 SCT025 29/26 Q1005 NOSIG=
202309062000 METAR VABB 062000Z 26012KT 3000 HZ SCT020 SCT025 29/26 Q1005 NOSIG=
202309062030 METAR VABB 062030Z 25010KT 3000 HZ SCT020 SCT025 29/26 Q1005 NOSIG=
202309062100 METAR VABB 062100Z 28010KT 3000 HZ SCT020 SCT025 29/26 Q1005 NOSIG=
202309062130 METAR VABB 062130Z 26013KT 3000 HZ SCT020 FEW025TCU 29/26 Q1005 NOSIG=
202309062200 METAR VABB 062200Z 25010KT 3000 HZ SCT020 FEW025TCU 29/26 Q1005 NOSIG=
202309062230 METAR VABB 062230Z 25010KT 3000 HZ SCT020 SCT025 29/26 Q1004 NOSIG=
202309062300 METAR VABB 062300Z 25007G17KT 3000 BR SCT020 FEW025TCU 29/26 Q1004 NOSIG=
202309062330 METAR VABB 062330Z 26012KT 3000 BR SCT020 FEW025TCU SCT100 28/25 Q1004 NOSIG=
202309070000 METAR VABB 070000Z 26009KT 3000 BR SCT020 FEW025TCU SCT100 28/26 Q1005 NOSIG=
202309070030 METAR VABB 070030Z 26009KT 3000 BR SCT020 FEW025TCU SCT100 28/26 Q1005 NOSIG=
202309070100 METAR VABB 070100Z 25010KT 3000 BR SCT018 FEW025TCU BKN090 28/26 Q1005 TEMPO 1500 SHRA=
202309070130 METAR VABB 070130Z 34005KT 2100 -RA SCT018 FEW025TCU BKN090 27/25 Q1006 TEMPO 1500 SHRA=
202309070200 METAR VABB 070200Z 26005KT 2100 -RA SCT018 FEW025TCU BKN090 27/26 Q1006 TEMPO 1500 SHRA=
202309070230 METAR VABB 070230Z 28010KT 1700 RA FEW012 SCT018 FEW030CB OVC080 28/27 Q1006 TEMPO 0800 +SHRA=
202309070300 METAR VABB 070300Z 01008KT 1700 RA FEW012 SCT018 FEW030CB OVC080 27/26 Q1006 TEMPO 0800 +RA=
202309070330 METAR VABB 070330Z 22006KT 0600 R27/1200 +RA SCT010 SCT018 FEW030CB OVC080 26/25 Q1007 NOSIG=
202309070400 METAR VABB 070400Z 09004KT 1200 R27/1500 +RA SCT010 SCT018 FEW030CB OVC080 26/25 Q1007 TEMPO 0600 +RA=
202309070430 METAR VABB 070430Z 00000KT 1500 -RA SCT010 SCT018 FEW030CB OVC080 25/25 Q1007 TEMPO 0600 +RA=
202309070500 METAR VABB 070500Z 25004KT 1500 -RA SCT010 SCT018 FEW030CB OVC080 25/25 Q1007 TEMPO 0800 +RA=
202309070530 METAR VABB 070530Z 25004KT 1500 -DZ FEW012 SCT018 FEW030CB OVC080 26/25 Q1007 TEMPO 0800 +RA=
202309070600 METAR VABB 070600Z 31005KT 1500 -RA FEW012 SCT018 FEW030CB OVC080 26/25 Q1007 TEMPO 0800 +RA=
202309070630 METAR VABB 070630Z 30005KT 2100 -DZ FEW012 SCT018 FEW030CB OVC080 26/25 Q1007 TEMPO 1500 RA=
202309070700 METAR VABB 070700Z 32003KT 2200 -DZ FEW012 SCT018 FEW030CB OVC080 26/25 Q1006 TEMPO 1500 RA=
202309070730 METAR VABB 070730Z 25004KT 2500 -DZ FEW012 SCT018 FEW030CB OVC080 26/25 Q1006 TEMPO 1500 RA=
202309070800 METAR VABB 070800Z 21004KT 2500 -DZ FEW012 SCT018 FEW030CB OVC080 26/25 Q1006 TEMPO 1500 RA=
202309070830 METAR VABB 070830Z 00000KT 2200 RA SCT012 SCT015 FEW030CB OVC080 26/25 Q1005 TEMPO 1500 SHRA=
202309070900 METAR VABB 070900Z 10006KT 1700 R27/1900 -TSRA SCT012 SCT015 FEW030CB OVC080 25/25 Q1005 TEMPO 0800 SHRA=
202309070930 METAR VABB 070930Z 14003KT 2100 -TSRA SCT012 SCT015 FEW030CB OVC080 25/25 Q1005 TEMPO 1500 SHRA=
202309071000 METAR VABB 071000Z 00000KT 1800 TSRA SCT012 SCT015 FEW030CB OVC080 25/25 Q1005 TEMPO 0800 +SHRA=
202309071030 METAR VABB 071030Z 25003KT 1200 R27/1300 +TSRA SCT012 SCT015 FEW030CB OVC080 25/25 Q1005 TEMPO 0800 +TSRA=
202309071100 METAR VABB 071100Z 00000KT 1200 R27/1300 +TSRA SCT012 SCT015 FEW030CB OVC080 25/25 Q1005 TEMPO 0800 +TSRA=
202309071130 METAR VABB 071130Z 01005KT 1200 R27/1300 +TSRA SCT012 SCT015 FEW030CB OVC080 24/24 Q1005 TEMPO 0800 +TSRA=
202309071200 METAR VABB 071200Z 11003KT 1000 R27/1200 +TSRA SCT012 SCT015 FEW030CB OVC080 24/24 Q1004 TEMPO 0600 +TSRA=
202309071230 METAR VABB 071230Z 12005KT 2500 -DZ FEW012 SCT015 FEW025TCU OVC080 25/25 Q1004 TEMPO 1500 RA=
202309071300 METAR VABB 071300Z 20005KT 2500 HZ FEW015 SCT018 FEW025TCU OVC080 25/25 Q1004 TEMPO 1500 SHRA=
202309071330 METAR VABB 071330Z 17006KT 2100 BR FEW015 SCT018 FEW025TCU OVC080 25/25 Q1005 TEMPO 1500 SHRA=
202309071400 METAR VABB 071400Z 17005KT 2100 BR SCT018 SCT025 BKN090 25/25 Q1005 NOSIG=
202309071430 METAR VABB 071430Z 00000KT 2500 BR SCT018 SCT025 BKN090 26/25 Q1005 NOSIG=
202309071500 METAR VABB 071500Z 16003KT 2500 BR SCT018 SCT025 BKN090 26/26 Q1006 NOSIG=
202309071530 METAR VABB 071530Z 20006KT 2500 -DZ SCT018 SCT025 BKN090 26/26 Q1005 NOSIG=
202309071600 METAR VABB 071600Z 19005KT 2500 BR SCT018 SCT025 BKN090 26/26 Q1006 NOSIG=
202309071630 METAR VABB 071630Z 22003KT 2500 BR SCT018 SCT025 BKN090 26/26 Q1006 NOSIG=
202309071700 METAR VABB 071700Z 18003KT 2500 BR SCT018 SCT025 BKN090 27/26 Q1006 NOSIG=
202309071730 METAR VABB 071730Z 20006KT 2500 BR SCT018 SCT025 BKN090 27/27 Q1006 NOSIG=
202309071800 METAR VABB 071800Z 24009KT 2500 BR SCT018 SCT025 BKN090 28/28 Q1006 NOSIG=
202309071830 METAR VABB 071830Z 25011KT 2500 BR SCT018 SCT025 BKN090 28/27 Q1005 TEMPO 1500 SHRA=
202309071900 METAR VABB 071900Z 24011KT 2500 BR SCT018 SCT025 BKN090 28/27 Q1005 TEMPO 1500 SHRA=
202309071930 METAR VABB 071930Z 26009KT 2500 BR SCT018 FEW025TCU BKN090 28/27 Q1005 TEMPO 1500 SHRA=
202309072000 METAR VABB 072000Z 27009KT 2500 BR SCT018 FEW025TCU BKN090 28/27 Q1005 TEMPO 1500 SHRA=
202309072030 METAR VABB 072030Z 30010KT 2100 RA FEW012 SCT018 FEW025TCU BKN090 27/26 Q1005 TEMPO 1500 SHRA=
202309072100 METAR VABB 072100Z 27011KT 2100 -RA FEW012 SCT018 FEW025TCU BKN090 28/27 Q1004 TEMPO 1500 SHRA=
202309072130 METAR VABB 072130Z 28013KT 2100 -RA FEW012 SCT015 FEW030CB BKN090 28/27 Q1004 TEMPO 1500 SHRA=
202309072200 METAR VABB 072200Z 28011KT 2200 -RA FEW012 SCT018 FEW030CB BKN090 28/27 Q1004 NOSIG=
202309072230 METAR VABB 072230Z 28015KT 1800 RA FEW012 SCT018 FEW030CB BKN090 27/26 Q1004 TEMPO 1500 SHRA=
202309072300 METAR VABB 072300Z 30009KT 2100 -RA FEW012 SCT018 FEW030CB BKN090 27/26 Q1004 TEMPO 1500 SHRA=
202309072330 METAR VABB 072330Z 28010KT 2500 HZ SCT018 FEW030CB BKN090 27/25 Q1004 TEMPO 1500 SHRA=
202309080000 METAR VABB 080000Z 27010KT 2500 HZ SCT018 FEW025TCU BKN090 28/26 Q1004 NOSIG=
202309080030 METAR VABB 080030Z 28009KT 2500 HZ SCT018 FEW025TCU BKN090 28/27 Q1004 NOSIG=
202309080100 METAR VABB 080100Z 29008KT 2200 HZ SCT018 FEW025TCU BKN090 28/27 Q1005 NOSIG=
202309080130 METAR VABB 080130Z 28009KT 2200 HZ SCT018 FEW025TCU BKN090 28/27 Q1005 TEMPO 1500 SHRA=
202309080200 METAR VABB 080200Z 28009KT 2200 HZ SCT018 FEW025TCU BKN090 28/27 Q1005 NOSIG=
202309080230 METAR VABB 080230Z 30006KT 2500 HZ SCT018 FEW025TCU BKN090 28/27 Q1006 NOSIG=
202309080300 METAR VABB 080300Z 28008KT 2500 HZ SCT018 FEW025TCU BKN090 28/27 Q1006 NOSIG=
202309080330 METAR VABB 080330Z 26007KT 2500 -DZ FEW012 SCT018 FEW025TCU BKN090 29/27 Q1006 NOSIG=
202309080400 METAR VABB 080400Z 26010KT 2500 -DZ FEW012 SCT018 FEW025TCU OVC080 29/27 Q1007 TEMPO 1500 SHRA=
202309080430 METAR VABB 080430Z 28011KT 2500 BR FEW012 SCT018 FEW025TCU OVC080 29/27 Q1007 NOSIG=
202309080500 METAR VABB 080500Z 26009G19KT 2500 -DZ FEW012 SCT018 FEW025TCU OVC080 29/28 Q1007 TEMPO 1500 SHRA=
202309080530 METAR VABB 080530Z 26012KT 2500 VCSH FEW012 SCT018 FEW030CB OVC080 29/27 Q1007 TEMPO 1500 SHRA=
202309080600 METAR VABB 080600Z 26011KT 1600 RA FEW012 SCT018 FEW030CB OVC080 28/27 Q1007 TEMPO 0800 +SHRA=
202309080630 METAR VABB 080630Z 28010KT 1200 R27/1500 RA FEW012 SCT018 FEW030CB OVC080 28/27 Q1006 TEMPO 0800 +SHRA=
202309080700 METAR VABB 080700Z 30015KT 1500 R27/1500 RA FEW012 SCT018 FEW030CB OVC080 27/26 Q1006 TEMPO 0800 +SHRA=
202309080730 METAR VABB 080730Z 27011KT 1000 R27/1400 +RA SCT012 SCT018 FEW030CB OVC080 26/25 Q1007 TEMPO 0600 +RA=
202309080800 METAR VABB 080800Z 30009KT 0600 R27/0800 +RA SCT010 SCT015 FEW030CB OVC080 27/26 Q1006 TEMPO 0350 +RA=
202309080830 METAR VABB 080830Z 28009KT 0350 R27/0500 +RA SCT008 SCT015 FEW030CB OVC080 26/26 Q1006 NOSIG=
202309080858 METAR VABB 080858Z 26004KT 1600 RA SCT008 SCT015 FEW030CB OVC080 26/26 Q1005 TEMPO 1500 +RA=
202309080930 METAR VABB 080930Z 32007KT 2200 DZ SCT008 SCT015 FEW030CB OVC080 26/26 Q1005 TEMPO 1500 SHRA=
202309081000 METAR VABB 081000Z 34006KT 0800 R27/0900 +RA SCT008 SCT015 FEW030CB OVC080 27/27 Q1005 TEMPO 0600 +SHRA=
202309081030 METAR VABB 081030Z 34008G18KT 1000 R27/1100 +RA SCT008 SCT015 FEW030CB OVC080 26/25 Q1005 TEMPO 0600 +SHRA=
202309081100 METAR VABB 081100Z 30008KT 1200 R27/1400 RA SCT010 SCT015 FEW030CB OVC080 25/25 Q1005 TEMPO 0800 +SHRA=
202309081130 METAR VABB 081130Z 33009KT 2200 DZ SCT010 SCT015 FEW030CB OVC080 27/27 Q1005 TEMPO 1500 SHRA=
202309081200 METAR VABB 081200Z 31009KT 2500 VCSH SCT010 SCT015 FEW030CB OVC080 26/26 Q1006 TEMPO 1500 SHRA=
202309081230 METAR VABB 081230Z 31007KT 2500 VCSH SCT010 SCT015 FEW030CB OVC080 26/25 Q1006 TEMPO 1500 SHRA=
202309081300 METAR VABB 081300Z 29010KT 2200 DZ SCT010 SCT015 FEW030CB OVC080 26/25 Q1006 TEMPO 1500 SHRA=
202309081330 METAR VABB 081330Z 35005KT 2100 -RA SCT010 SCT015 FEW030CB OVC080 26/25 Q1006 TEMPO 1500 SHRA=
202309081400 METAR VABB 081400Z 07003KT 2500 DZ FEW012 SCT018 FEW030CB OVC090 26/25 Q1006 TEMPO 1500 SHRA=
202309081430 METAR VABB 081430Z 16004KT 2500 -RA FEW012 SCT018 FEW030CB OVC090 26/25 Q1006 TEMPO 1500 SHRA=
202309081500 METAR VABB 081500Z 15004KT 2500 -RA FEW012 SCT018 FEW030CB OVC090 26/25 Q1006 TEMPO 1500 SHRA=
202309081530 METAR VABB 081530Z 15004KT 2500 DZ FEW012 SCT018 FEW025TCU OVC090 26/25 Q1006 TEMPO 1500 SHRA=
202309081600 METAR VABB 081600Z 18003KT 2500 -RA FEW012 SCT018 FEW025TCU OVC090 26/25 Q1006 TEMPO 1500 SHRA=
202309081630 METAR VABB 081630Z 15003KT 2500 -RA FEW012 SCT018 FEW025TCU OVC090 26/26 Q1007 TEMPO 1500 SHRA=
202309081700 METAR VABB 081700Z 20003KT 2500 DZ FEW012 SCT018 FEW025TCU OVC090 26/26 Q1007 TEMPO 1500 SHRA=
202309081730 METAR VABB 081730Z 20003KT 2500 BR FEW012 SCT018 FEW025TCU OVC090 27/26 Q1007 TEMPO 1500 SHRA=
202309081800 METAR VABB 081800Z 22004KT 2500 BR FEW012 SCT018 FEW025TCU OVC090 27/26 Q1007 NOSIG=
202309081830 METAR VABB 081830Z 27005KT 2500 DZ FEW012 SCT018 FEW025TCU OVC090 28/27 Q1006 TEMPO 1500 SHRA=
202309081900 METAR VABB 081900Z 27008KT 2500 BR FEW012 SCT018 FEW025TCU OVC090 28/27 Q1006 TEMPO 1500 SHRA=
202309081930 METAR VABB 081930Z 29005KT 2500 BR FEW012 SCT018 FEW025TCU BKN090 28/27 Q1006 NOSIG=
202309082000 METAR VABB 082000Z 30005KT 2500 DZ FEW012 SCT018 FEW025TCU BKN090 28/27 Q1005 TEMPO 1500 SHRA=
202309082030 METAR VABB 082030Z 29006KT 1800 -RA FEW012 SCT018 FEW030CB OVC090 28/27 Q1005 TEMPO 1500 SHRA=
202309082100 METAR VABB 082100Z 31006KT 2100 -RA FEW012 SCT018 FEW030CB OVC090 28/27 Q1005 TEMPO 1500 SHRA=
202309082130 METAR VABB 082130Z 32005KT 2100 BR FEW012 SCT018 FEW030CB OVC090 28/27 Q1005 TEMPO 1500 SHRA=
202309082200 METAR VABB 082200Z 28003KT 2500 BR FEW012 SCT018 FEW030CB OVC090 28/27 Q1004 TEMPO 1500 SHRA=
202309082230 METAR VABB 082230Z 29006KT 2500 -RA FEW012 SCT018 FEW030CB OVC090 28/27 Q1004 TEMPO 1500 SHRA=
202309082300 METAR VABB 082300Z 27007KT 2500 -DZ FEW012 SCT018 FEW025TCU OVC090 28/27 Q1004 NOSIG=
202309082330 METAR VABB 082330Z 28008KT 2500 BR SCT018 FEW025TCU BKN090 28/27 Q1005 NOSIG=
202309090000 METAR VABB 090000Z 27010KT 2500 BR SCT018 FEW025TCU BKN090 28/27 Q1005 NOSIG=
202309090030 METAR VABB 090030Z 28008KT 2500 BR SCT018 FEW025TCU BKN090 28/27 Q1005 NOSIG=
202309090100 METAR VABB 090100Z 28010KT 2500 BR SCT018 FEW025TCU BKN090 28/27 Q1005 NOSIG=
202309090130 METAR VABB 090130Z 28010KT 2500 HZ SCT018 FEW025TCU BKN090 28/26 Q1006 NOSIG=
202309090200 METAR VABB 090200Z 28008KT 2500 HZ SCT018 FEW025TCU BKN090 29/26 Q1006 NOSIG=
202309090230 METAR VABB 090230Z 30009KT 2500 HZ SCT018 FEW025TCU BKN090 29/27 Q1007 NOSIG=
202309090300 METAR VABB 090300Z 32006KT 2500 HZ SCT018 FEW025TCU BKN090 30/27 Q1007 NOSIG=
202309090330 METAR VABB 090330Z 29009KT 2500 HZ SCT018 FEW025TCU BKN090 30/27 Q1007 NOSIG=
202309090400 METAR VABB 090400Z 28009KT 2500 HZ SCT020 FEW025TCU BKN090 30/27 Q1007 BECMG 3000 HZ=
202309090430 METAR VABB 090430Z 29008KT 3000 HZ SCT020 SCT025 BKN090 30/27 Q1007 NOSIG=
202309090500 METAR VABB 090500Z 28011KT 3000 -RA SCT018 SCT025 BKN090 30/28 Q1007 TEMPO 1500 SHRA=
202309090530 METAR VABB 090530Z 28008KT 3000 -RA SCT018 SCT025 BKN090 29/27 Q1007 TEMPO 1500 SHRA=
202309090600 METAR VABB 090600Z 27007G17KT 3000 HZ SCT018 SCT025 BKN090 29/28 Q1007 NOSIG=
202309090630 METAR VABB 090630Z 28007G17KT 3000 HZ SCT018 SCT025 BKN090 30/28 Q1007 NOSIG=
202309090700 METAR VABB 090700Z 29011KT 3000 VCSH SCT018 SCT025 BKN090 30/27 Q1006 TEMPO 1500 SHRA=
202309090730 METAR VABB 090730Z 31007KT 2500 VCSH SCT018 FEW025TCU BKN090 28/27 Q1006 TEMPO 1500 SHRA=
202309090800 METAR VABB 090800Z 35008KT 2500 BR SCT018 FEW025TCU BKN090 28/27 Q1006 NOSIG=
202309090830 METAR VABB 090830Z 30005KT 2500 BR SCT018 FEW025TCU BKN090 29/28 Q1005 NOSIG=
202309090900 METAR VABB 090900Z 27011KT 2500 HZ SCT018 FEW025TCU BKN090 30/28 Q1005 NOSIG=
202309090930 METAR VABB 090930Z 29008KT 3000 HZ SCT018 FEW025TCU BKN090 29/27 Q1005 NOSIG=
202309091000 METAR VABB 091000Z 28011KT 3500 HZ SCT018 SCT025 BKN090 30/27 Q1005 NOSIG=
202309091030 METAR VABB 091030Z 27011KT 3000 HZ SCT018 SCT025 BKN090 30/27 Q1005 NOSIG=
202309091100 METAR VABB 091100Z 32009KT 3000 HZ SCT018 SCT025 BKN090 30/27 Q1005 NOSIG=
202309091130 METAR VABB 091130Z 28010KT 3000 HZ SCT018 SCT025 BKN090 30/27 Q1005 NOSIG=
202309091200 METAR VABB 091200Z 32008KT 3000 HZ SCT018 SCT025 BKN090 30/27 Q1005 NOSIG=
202309091230 METAR VABB 091230Z 31010KT 3000 VCSH SCT015 SCT025 BKN100 29/29 Q1005 NOSIG=
202309091300 METAR VABB 091300Z 28009KT 3000 HZ SCT015 SCT025 BKN100 29/29 Q1005 NOSIG=
202309091330 METAR VABB 091330Z 30006KT 3000 HZ SCT015 SCT025 BKN100 29/29 Q1005 NOSIG=
202309091400 METAR VABB 091400Z 29006KT 3000 HZ SCT018 SCT025 BKN100 29/27 Q1005 NOSIG=
202309091430 METAR VABB 091430Z 30007KT 3000 HZ SCT018 SCT025 BKN100 29/27 Q1006 NOSIG=
202309091500 METAR VABB 091500Z 30007KT 3000 HZ SCT018 SCT025 BKN100 29/27 Q1006 NOSIG=
202309091530 METAR VABB 091530Z 27007KT 3000 HZ SCT018 SCT025 BKN100 29/27 Q1006 NOSIG=
202309091600 METAR VABB 091600Z 28007KT 3000 HZ SCT018 SCT025 BKN100 29/27 Q1006 NOSIG=
202309091630 METAR VABB 091630Z 28007KT 3000 HZ SCT018 SCT025 BKN100 29/27 Q1006 NOSIG=
202309091700 METAR VABB 091700Z 28006KT 3000 HZ SCT018 SCT025 BKN100 29/27 Q1007 NOSIG=
202309091730 METAR VABB 091730Z 30005KT 3000 HZ SCT018 SCT025 BKN100 29/27 Q1006 NOSIG=
202309091800 METAR VABB 091800Z 26007KT 3000 HZ SCT018 SCT025 BKN100 29/27 Q1007 NOSIG=
202309091830 METAR VABB 091830Z 27007KT 3000 HZ SCT018 SCT025 BKN100 28/27 Q1006 NOSIG=
202309091900 METAR VABB 091900Z 27008KT 3000 HZ SCT018 SCT025 BKN100 28/27 Q1006 NOSIG=
202309091930 METAR VABB 091930Z 25010KT 3000 HZ SCT018 SCT025 BKN100 28/27 Q1006 NOSIG=
202309092000 METAR VABB 092000Z 28008KT 3000 HZ SCT018 SCT025 BKN100 28/27 Q1006 NOSIG=
202309092030 METAR VABB 092030Z 27007KT 3000 HZ SCT018 SCT025 BKN100 28/27 Q1006 NOSIG=
202309092100 METAR VABB 092100Z 26009KT 3000 HZ SCT018 SCT025 BKN100 28/27 Q1005 NOSIG=
202309092130 METAR VABB 092130Z 26010KT 3000 HZ SCT018 SCT025 BKN100 28/27 Q1005 NOSIG=
202309092200 METAR VABB 092200Z 27008KT 3000 HZ SCT018 SCT025 BKN100 28/27 Q1005 NOSIG=
202309092230 METAR VABB 092230Z 26008KT 3000 HZ SCT018 SCT025 BKN100 28/27 Q1005 NOSIG=
202309092300 METAR VABB 092300Z 27008KT 3000 HZ SCT018 SCT025 BKN100 28/27 Q1005 NOSIG=
202309092330 METAR VABB 092330Z 24009KT 3000 HZ SCT018 SCT025 BKN100 28/27 Q1005 NOSIG=
202309100000 METAR VABB 100000Z 28006KT 3000 HZ SCT018 SCT025 BKN100 28/27 Q1005 NOSIG=
202309100030 METAR VABB 100030Z 27006KT 3000 HZ SCT018 SCT025 BKN100 28/28 Q1005 NOSIG=
202309100100 METAR VABB 100100Z 25008KT 2500 HZ SCT018 SCT025 BKN100 28/27 Q1005 NOSIG=
202309100130 METAR VABB 100130Z 25009KT 2500 HZ SCT018 SCT025 BKN100 28/27 Q1006 NOSIG=
202309100200 METAR VABB 100200Z 25008KT 2500 HZ FEW020 SCT025 BKN100 28/27 Q1006 NOSIG=
202309100230 METAR VABB 100230Z 25007KT 2500 HZ FEW020 SCT025 BKN100 29/27 Q1007 NOSIG=
202309100300 METAR VABB 100300Z 25010KT 2500 HZ FEW020 SCT025 BKN100 29/27 Q1007 NOSIG=
202309100330 METAR VABB 100330Z 25010KT 3000 HZ FEW020 SCT025 BKN100 29/27 Q1007 BECMG 3000 HZ=
202309100400 METAR VABB 100400Z 26011KT 3000 HZ FEW020 SCT025 29/27 Q1007 BECMG 3000 HZ=
202309100430 METAR VABB 100430Z 26010KT 3000 HZ FEW020 SCT025 30/27 Q1007 NOSIG=
202309100500 METAR VABB 100500Z 26007G17KT 3000 HZ FEW020 SCT025 30/27 Q1007 NOSIG=
202309100530 METAR VABB 100530Z 26007G17KT 3000 HZ SCT020 SCT025 30/27 Q1007 NOSIG=
202309100600 METAR VABB 100600Z 28008G18KT 3000 HZ FEW020 SCT025 30/27 Q1007 NOSIG=
202309100630 METAR VABB 100630Z 24009G19KT 3000 HZ FEW020 SCT025 31/27 Q1007 NOSIG=
202309100700 METAR VABB 100700Z 25013KT 3500 HZ SCT018 SCT025 30/27 Q1007 NOSIG=
202309100730 METAR VABB 100730Z 26007G17KT 3500 HZ SCT018 SCT025 31/26 Q1006 NOSIG=
202309100800 METAR VABB 100800Z 25009G19KT 3500 HZ SCT018 SCT025 BKN100 31/26 Q1006 NOSIG=
202309100830 METAR VABB 100830Z 26011KT 3500 HZ SCT018 SCT025 BKN100 31/27 Q1006 NOSIG=
202309101100 METAR VABB 101100Z 26011KT 3500 HZ SCT018 FEW025TCU BKN100 30/26 Q1005 NOSIG=
202309101130 METAR VABB 101130Z 29010KT 3000 SHRA FEW012 SCT018 FEW025TCU BKN090 30/27 Q1005 TEMPO 1500 SHRA=
202309101200 METAR VABB 101200Z 24011KT 3000 SHRA FEW012 SCT018 FEW025TCU BKN090 30/27 Q1005 NOSIG=
202309101230 METAR VABB 101230Z 25011KT 3000 HZ FEW012 SCT018 FEW025TCU BKN090 29/27 Q1005 NOSIG=
202309101300 METAR VABB 101300Z 26008KT 3000 HZ FEW012 SCT018 FEW025TCU BKN090 29/27 Q1005 NOSIG=
202309101330 METAR VABB 101330Z 25010KT 3000 HZ SCT018 FEW025TCU BKN090 29/26 Q1005 NOSIG=
202309101400 METAR VABB 101400Z 27008KT 3000 HZ SCT018 FEW025TCU BKN100 29/28 Q1006 NOSIG=
202309101430 METAR VABB 101430Z 25010KT 3000 HZ SCT018 FEW025TCU BKN100 29/26 Q1006 NOSIG=
202309101500 METAR VABB 101500Z 26008KT 3000 HZ SCT018 SCT025 BKN100 29/26 Q1006 NOSIG=
202309101530 METAR VABB 101530Z 23006KT 3000 HZ SCT018 SCT025 BKN100 29/27 Q1006 NOSIG=
202309101600 METAR VABB 101600Z 22006KT 3000 HZ SCT018 SCT025 BKN100 29/27 Q1007 NOSIG=
202309101630 METAR VABB 101630Z 23007KT 3000 HZ SCT018 SCT025 BKN100 29/27 Q1007 NOSIG=
202309101700 METAR VABB 101700Z 22004KT 3000 HZ SCT018 SCT025 BKN100 29/27 Q1007 NOSIG=
202309101730 METAR VABB 101730Z 24006KT 3000 HZ SCT018 SCT025 BKN100 29/27 Q1007 NOSIG=
202309101800 METAR VABB 101800Z 23006KT 3000 HZ SCT018 SCT025 BKN100 29/27 Q1007 NOSIG=
202309101830 METAR VABB 101830Z 24007KT 3000 HZ SCT018 SCT025 BKN100 29/27 Q1007 NOSIG=
202309101900 METAR VABB 101900Z 24006KT 3000 HZ SCT018 SCT025 BKN100 29/27 Q1006 NOSIG=
202309101930 METAR VABB 101930Z 23005KT 3000 HZ SCT018 SCT025 BKN100 29/27 Q1006 NOSIG=
202309102000 METAR VABB 102000Z 24006KT 3000 HZ SCT018 SCT025 BKN100 29/27 Q1006 NOSIG=
202309102030 METAR VABB 102030Z 23007KT 3000 HZ SCT018 SCT025 BKN100 28/27 Q1006 NOSIG=
202309102100 METAR VABB 102100Z 23008KT 3000 BR SCT018 SCT025 BKN100 28/27 Q1006 NOSIG=
202309102130 METAR VABB 102130Z 21005KT 3000 BR SCT018 SCT025 BKN100 28/27 Q1005 NOSIG=
202309102200 METAR VABB 102200Z 26007KT 3000 BR FEW018 SCT025 BKN100 28/27 Q1005 NOSIG=
202309102230 METAR VABB 102230Z 26005KT 3000 BR FEW018 SCT025 BKN100 28/27 Q1005 NOSIG=
202309102300 METAR VABB 102300Z 25007KT 3000 BR FEW020 SCT025 28/27 Q1005 NOSIG=
202309102330 METAR VABB 102330Z 24007KT 3000 BR FEW020 SCT025 28/27 Q1006 NOSIG=
202309110000 METAR VABB 110000Z 24005KT 2500 -DZ SCT018 SCT025 BKN100 28/27 Q1006 TEMPO 1500 SHRA=
202309110030 METAR VABB 110030Z 23004KT 2500 -DZ SCT018 SCT025 BKN100 28/27 Q1006 TEMPO 1500 SHRA=
202309110100 METAR VABB 110100Z 26005KT 2500 BR SCT018 FEW025TCU BKN090 28/27 Q1006 NOSIG=
202309110130 METAR VABB 110130Z 23006KT 3000 BR SCT018 FEW025TCU BKN090 28/27 Q1006 NOSIG=
202309110200 METAR VABB 110200Z 28005KT 3000 HZ SCT018 SCT025 BKN100 28/27 Q1007 NOSIG=
202309110230 METAR VABB 110230Z 27006KT 3000 HZ SCT018 SCT025 29/27 Q1007 NOSIG=
202309110300 METAR VABB 110300Z 32005KT 3000 HZ SCT018 SCT025 29/27 Q1007 NOSIG=
202309110330 METAR VABB 110330Z 25009KT 3500 HZ SCT018 SCT025 29/27 Q1007 NOSIG=
202309110400 METAR VABB 110400Z 28009KT 3500 HZ SCT018 SCT025 29/27 Q1008 NOSIG=
202309110430 METAR VABB 110430Z 26009KT 4000 HZ SCT020 SCT025 30/27 Q1007 NOSIG=
202309110500 METAR VABB 110500Z 27012KT 4000 HZ SCT020 SCT025 30/27 Q1007 NOSIG=
202309110530 METAR VABB 110530Z 28010KT 4000 HZ SCT020 SCT025 31/26 Q1007 NOSIG=
202309110600 METAR VABB 110600Z 27012KT 4000 HZ SCT020 SCT025 31/26 Q1007 BECMG 5000 HZ=
202309110630 METAR VABB 110630Z 28012KT 5000 HZ SCT020 SCT025 31/27 Q1007 NOSIG=
202309110700 METAR VABB 110700Z 24007G17KT 5000 HZ SCT020 SCT025 31/27 Q1007 NOSIG=
202309110730 METAR VABB 110730Z 26010G20KT 5000 HZ SCT020 SCT025 31/27 Q1007 NOSIG=
202309110800 METAR VABB 110800Z 28007G17KT 5000 HZ SCT020 SCT025 31/26 Q1006 NOSIG=
202309110830 METAR VABB 110830Z 28007G17KT 5000 HZ SCT020 SCT025 31/27 Q1006 NOSIG=
202309110900 METAR VABB 110900Z 27009G19KT 5000 HZ SCT020 SCT025 31/26 Q1006 NOSIG=
202309110930 METAR VABB 110930Z 30007G17KT 5000 HZ SCT020 SCT025 31/29 Q1006 NOSIG=
202309111000 METAR VABB 111000Z 26007G17KT 5000 HZ SCT020 SCT025 30/26 Q1005 TEMPO 3000 -SHRA=
202309111030 METAR VABB 111030Z 27007G17KT 5000 HZ SCT020 SCT025 31/26 Q1005 NOSIG=
202309111100 METAR VABB 111100Z 29012KT 5000 HZ SCT020 SCT025 30/26 Q1005 NOSIG=
202309111130 METAR VABB 111130Z 28011KT 5000 HZ SCT020 SCT025 31/25 Q1005 NOSIG=
202309111200 METAR VABB 111200Z 30007G17KT 5000 HZ SCT020 SCT025 31/26 Q1006 NOSIG=
202309111230 METAR VABB 111230Z 31010KT 4000 HZ SCT020 SCT025 30/28 Q1006 NOSIG=
202309111300 METAR VABB 111300Z 27012KT 4000 HZ SCT020 SCT025 30/26 Q1006 NOSIG=
202309111330 METAR VABB 111330Z 26009KT 3000 -DZ FEW012 SCT018 FEW025TCU BKN090 29/26 Q1006 TEMPO 1500 SHRA=
202309111400 METAR VABB 111400Z 25007G17KT 3000 BR FEW012 SCT018 FEW025TCU BKN090 29/26 Q1006 TEMPO 1500 SHRA=
202309111430 METAR VABB 111430Z 27009KT 3000 HZ FEW012 SCT018 FEW025TCU BKN090 29/25 Q1007 NOSIG=
202309111500 METAR VABB 111500Z 27009KT 3000 HZ FEW012 SCT018 FEW025TCU BKN090 29/26 Q1007 NOSIG=
202309111530 METAR VABB 111530Z 26008KT 3000 HZ SCT018 FEW025TCU BKN100 29/26 Q1007 TEMPO 1500 SHRA=
202309111600 METAR VABB 111600Z 28011KT 3000 -DZ SCT018 SCT025 FEW025TCU 28/26 Q1008 TEMPO 1500 SHRA=
202309111630 METAR VABB 111630Z 25010KT 3000 HZ SCT018 SCT025 FEW025TCU 28/26 Q1008 NOSIG=
202309111700 METAR VABB 111700Z 25010KT 3000 HZ SCT018 SCT025 28/25 Q1008 NOSIG=
202309111730 METAR VABB 111730Z 28008KT 3000 HZ SCT018 SCT025 28/25 Q1008 NOSIG=
202309111800 METAR VABB 111800Z 26009KT 3000 HZ SCT018 SCT025 28/25 Q1008 NOSIG=
202309111830 METAR VABB 111830Z 24010KT 3000 HZ SCT018 SCT025 28/26 Q1008 NOSIG=
202309111900 METAR VABB 111900Z 24010KT 3000 HZ SCT018 SCT025 28/26 Q1008 NOSIG=
202309111930 METAR VABB 111930Z 25010KT 3000 HZ SCT018 SCT025 28/26 Q1007 NOSIG=
202309112000 METAR VABB 112000Z 25010KT 3000 HZ SCT018 SCT025 29/26 Q1007 NOSIG=
202309112030 METAR VABB 112030Z 25008KT 3000 HZ SCT018 SCT025 28/25 Q1007 NOSIG=
202309112100 METAR VABB 112100Z 24009KT 3000 HZ SCT018 SCT025 28/26 Q1006 NOSIG=
202309112130 METAR VABB 112130Z 24007KT 3000 -DZ FEW012 SCT018 FEW025TCU BKN090 28/26 Q1006 TEMPO 1500 SHRA=
202309112200 METAR VABB 112200Z 27004KT 3000 BR FEW012 SCT018 FEW025TCU BKN100 28/26 Q1006 NOSIG=
202309112230 METAR VABB 112230Z 27006KT 3000 HZ SCT018 SCT025 28/26 Q1006 NOSIG=
202309112300 METAR VABB 112300Z 25007KT 3000 HZ SCT018 SCT025 28/26 Q1006 NOSIG=
202309112330 METAR VABB 112330Z 27007KT 3000 HZ SCT018 SCT025 28/27 Q1006 NOSIG=
202309120000 METAR VABB 120000Z 24007KT 3000 HZ SCT020 28/25 Q1007 NOSIG=
202309120030 METAR VABB 120030Z 26005KT 3000 HZ SCT018 28/25 Q1007 NOSIG=
202309120100 METAR VABB 120100Z 24006KT 3000 HZ SCT018 SCT025 28/25 Q1007 NOSIG=
202309120130 METAR VABB 120130Z 24005KT 3000 HZ SCT018 SCT025 28/25 Q1007 NOSIG=
202309120200 METAR VABB 120200Z 24005KT 3500 HZ SCT018 SCT025 29/26 Q1007 TEMPO 3000 -SHRA=
202309120230 METAR VABB 120230Z 25009KT 3500 HZ FEW020 SCT025 29/26 Q1008 NOSIG=
202309120300 METAR VABB 120300Z 24009KT 3500 HZ FEW020 SCT025 29/25 Q1008 NOSIG=
202309120330 METAR VABB 120330Z 25009KT 3500 HZ FEW020 SCT025 29/25 Q1008 NOSIG=
202309120400 METAR VABB 120400Z 25010KT 3500 HZ FEW020 SCT025 30/25 Q1008 NOSIG=
202309120430 METAR VABB 120430Z 23011KT 3500 HZ FEW020 SCT025 30/25 Q1008 NOSIG=
202309120500 METAR VABB 120500Z 25010KT 4000 HZ FEW020 SCT025 30/25 Q1009 NOSIG=
202309120530 METAR VABB 120530Z 24011KT 4000 HZ SCT020 SCT025 31/26 Q1009 NOSIG=
202309120600 METAR VABB 120600Z 24012KT 3000 VCSH SCT018 SCT025 30/25 Q1009 TEMPO 1500 SHRA=
202309120630 METAR VABB 120630Z 23007KT 4000 HZ SCT018 SCT025 29/26 Q1009 NOSIG=
202309120700 METAR VABB 120700Z 25008KT 4000 HZ SCT018 SCT025 30/26 Q1008 NOSIG=
202309120730 METAR VABB 120730Z 27012KT 4000 HZ SCT018 SCT025 30/25 Q1008 NOSIG=
202309120800 METAR VABB 120800Z 25016KT 3000 VCSH FEW012 SCT018 SCT025 BKN090 28/23 Q1008 NOSIG=
202309120830 METAR VABB 120830Z 27008KT 3000 HZ SCT018 SCT025 30/26 Q1008 NOSIG=
202309120900 METAR VABB 120900Z 27010KT 3000 HZ SCT018 SCT025 30/26 Q1007 NOSIG=
202309120930 METAR VABB 120930Z 27008KT 3500 HZ SCT018 FEW025TCU BKN090 30/26 Q1007 NOSIG=
202309121000 METAR VABB 121000Z 26011KT 4000 HZ SCT018 FEW025TCU BKN090 31/25 Q1006 NOSIG=
202309121030 METAR VABB 121030Z 24012KT 4000 HZ SCT018 FEW025TCU BKN090 31/26 Q1006 NOSIG=
202309121100 METAR VABB 121100Z 27009KT 4000 HZ SCT018 SCT025 31/25 Q1006 NOSIG=
202309121130 METAR VABB 121130Z 29009KT 4000 HZ SCT018 SCT025 30/26 Q1006 NOSIG=
202309121200 METAR VABB 121200Z 27011KT 4000 HZ SCT018 SCT025 30/25 Q1006 NOSIG=
202309121230 METAR VABB 121230Z 26009KT 4000 HZ SCT018 SCT025 30/25 Q1006 NOSIG=
202309121300 METAR VABB 121300Z 26009KT 3500 HZ SCT018 SCT025 29/25 Q1006 NOSIG=
202309121330 METAR VABB 121330Z 24009KT 3500 HZ SCT018 SCT025 29/25 Q1007 NOSIG=
202309121400 METAR VABB 121400Z 26007KT 3500 HZ SCT018 SCT025 29/25 Q1007 NOSIG=
202309121430 METAR VABB 121430Z 25007KT 3500 HZ SCT018 SCT025 29/25 Q1007 BECMG 3000 HZ=
202309121500 METAR VABB 121500Z 26007KT 3000 HZ SCT018 SCT025 29/25 Q1007 NOSIG=
202309121530 METAR VABB 121530Z 24007KT 3000 HZ SCT018 SCT025 29/25 Q1008 NOSIG=
202309121600 METAR VABB 121600Z 26006KT 3000 HZ SCT018 SCT025 29/26 Q1008 NOSIG=
202309121630 METAR VABB 121630Z 24009KT 3000 HZ SCT018 SCT025 29/26 Q1008 NOSIG=
202309121700 METAR VABB 121700Z 25007KT 3000 HZ SCT018 SCT025 29/26 Q1008 NOSIG=
202309121730 METAR VABB 121730Z 24008KT 3000 HZ SCT020 SCT025 29/26 Q1008 NOSIG=
202309121800 METAR VABB 121800Z 24008KT 3000 HZ SCT020 SCT025 29/26 Q1008 NOSIG=
202309121830 METAR VABB 121830Z 24010KT 3000 HZ SCT020 SCT025 29/25 Q1008 NOSIG=
202309121900 METAR VABB 121900Z 24007KT 3000 HZ SCT020 SCT025 29/26 Q1008 NOSIG=
202309121930 METAR VABB 121930Z 25007KT 3000 HZ SCT020 SCT025 28/26 Q1007 NOSIG=
202309122000 METAR VABB 122000Z 21005KT 3000 HZ SCT020 SCT025 28/26 Q1007 NOSIG=
202309122030 METAR VABB 122030Z 21005KT 3000 HZ SCT018 SCT025 28/26 Q1007 NOSIG=
202309122100 METAR VABB 122100Z 24007KT 3000 HZ SCT018 SCT025 28/26 Q1007 NOSIG=
202309122130 METAR VABB 122130Z 24006KT 3000 HZ SCT018 SCT025 28/26 Q1007 NOSIG=
202309122200 METAR VABB 122200Z 23006KT 3000 HZ SCT018 SCT025 28/25 Q1007 NOSIG=
202309122230 METAR VABB 122230Z 24006KT 3000 HZ SCT018 SCT025 28/25 Q1006 NOSIG=
202309122300 METAR VABB 122300Z 23006KT 3000 HZ SCT018 SCT025 28/25 Q1006 NOSIG=
202309122330 METAR VABB 122330Z 23008KT 3000 HZ SCT018 SCT025 28/25 Q1006 NOSIG=
202309130000 METAR VABB 130000Z 24006KT 3000 HZ SCT018 SCT025 28/25 Q1006 NOSIG=
202309130030 METAR VABB 130030Z 24006KT 3000 HZ SCT018 SCT025 28/25 Q1006 NOSIG=
202309130100 METAR VABB 130100Z 24006KT 3000 HZ SCT018 SCT025 28/26 Q1007 NOSIG=
202309130130 METAR VABB 130130Z 24005KT 3000 HZ SCT018 SCT025 28/26 Q1007 NOSIG=
202309130200 METAR VABB 130200Z 24008KT 3500 HZ SCT018 FEW025TCU 29/26 Q1007 NOSIG=
202309130230 METAR VABB 130230Z 23006KT 3500 HZ FEW020 SCT025 29/26 Q1007 NOSIG=
202309130300 METAR VABB 130300Z 24009KT 3500 HZ FEW020 SCT025 29/26 Q1008 NOSIG=
202309130330 METAR VABB 130330Z 27008KT 4000 HZ FEW020 SCT025 29/28 Q1008 NOSIG=
202309130400 METAR VABB 130400Z 24010KT 4000 HZ FEW020 SCT025 30/26 Q1008 NOSIG=
202309130430 METAR VABB 130430Z 26012KT 4000 HZ FEW020 SCT025 30/26 Q1008 NOSIG=
202309130500 METAR VABB 130500Z 26010KT 4000 HZ FEW020 SCT025 30/26 Q1008 NOSIG=
202309130530 METAR VABB 130530Z 26012KT 4000 HZ FEW020 SCT025 31/25 Q1008 NOSIG=
202309130600 METAR VABB 130600Z 27012KT 4000 HZ FEW020 SCT025 31/26 Q1007 NOSIG=
202309130630 METAR VABB 130630Z 27012KT 4000 HZ FEW020 SCT025 30/24 Q1007 NOSIG=
202309130700 METAR VABB 130700Z 25013KT 4000 HZ SCT018 SCT025 31/26 Q1007 NOSIG=
202309130730 METAR VABB 130730Z 30011KT 3000 VCSH FEW012 SCT018 SCT025 BKN100 29/24 Q1007 TEMPO 1500 SHRA=
202309130800 METAR VABB 130800Z 25011KT 4000 HZ SCT018 SCT025 31/26 Q1006 NOSIG=
202309130830 METAR VABB 130830Z 28011KT 4000 HZ SCT018 SCT025 31/25 Q1006 NOSIG=
202309130900 METAR VABB 130900Z 27013KT 4000 HZ SCT018 SCT025 31/26 Q1006 NOSIG=
202309130930 METAR VABB 130930Z 27010KT 4000 HZ SCT020 SCT025 31/26 Q1005 NOSIG=
202309131000 METAR VABB 131000Z 28010KT 4000 HZ SCT020 SCT025 31/26 Q1005 NOSIG=
202309131030 METAR VABB 131030Z 26009KT 4000 HZ SCT020 SCT025 FEW025TCU 30/26 Q1005 NOSIG=
202309131100 METAR VABB 131100Z 29012KT 4000 HZ FEW020 SCT025 FEW025TCU 31/26 Q1005 NOSIG=
202309131130 METAR VABB 131130Z 27011KT 4000 HZ FEW020 SCT025 FEW025TCU 30/26 Q1005 NOSIG=
202309131200 METAR VABB 131200Z 26012KT 4000 HZ FEW020 SCT025 30/26 Q1005 NOSIG=
202309131230 METAR VABB 131230Z 25012KT 4000 HZ SCT020 SCT025 30/26 Q1005 NOSIG=
202309131300 METAR VABB 131300Z 26010KT 4000 HZ SCT020 FEW025TCU 29/26 Q1005 NOSIG=
202309131330 METAR VABB 131330Z 29008KT 3000 VCSH SCT018 SCT025 FEW025TCU 29/25 Q1005 NOSIG=
202309131400 METAR VABB 131400Z 26004KT 3000 -DZ SCT018 SCT025 FEW025TCU 29/26 Q1006 TEMPO 1500 SHRA=
202309131430 METAR VABB 131430Z 33006KT 3000 HZ SCT018 SCT025 FEW025TCU 29/26 Q1006 NOSIG=
202309131500 METAR VABB 131500Z 25009KT 3000 HZ SCT018 SCT025 29/26 Q1006 NOSIG=
202309131530 METAR VABB 131530Z 24010KT 3000 HZ SCT018 SCT025 29/26 Q1007 NOSIG=
202309131600 METAR VABB 131600Z 24007KT 3000 HZ SCT018 SCT025 29/26 Q1007 NOSIG=
202309131630 METAR VABB 131630Z 22006KT 3000 HZ SCT018 SCT025 29/26 Q1007 NOSIG=
202309131700 METAR VABB 131700Z 25008KT 3000 HZ SCT018 SCT025 29/26 Q1007 NOSIG=
202309131730 METAR VABB 131730Z 25008KT 3000 HZ SCT018 SCT025 29/26 Q1007 NOSIG=
202309131800 METAR VABB 131800Z 26006KT 3000 HZ SCT018 SCT025 29/26 Q1007 NOSIG=
202309131830 METAR VABB 131830Z 25008KT 3000 HZ SCT018 SCT025 29/26 Q1007 NOSIG=
202309131900 METAR VABB 131900Z 24008KT 3000 HZ SCT018 SCT025 29/26 Q1007 NOSIG=
202309131930 METAR VABB 131930Z 23007KT 3000 HZ SCT018 SCT025 29/26 Q1007 NOSIG=
202309132000 METAR VABB 132000Z 24007KT 3000 HZ SCT018 SCT025 29/26 Q1007 NOSIG=
202309132030 METAR VABB 132030Z 24006KT 3000 HZ SCT018 SCT025 28/26 Q1006 NOSIG=
202309132100 METAR VABB 132100Z 22005KT 3000 HZ SCT018 SCT025 29/26 Q1006 NOSIG=
202309132130 METAR VABB 132130Z 24009KT 2200 HZ FEW012 SCT018 BKN090 29/26 Q1006 TEMPO 1500 SHRA=
202309132200 METAR VABB 132200Z 30003KT 2500 HZ SCT018 SCT025 27/26 Q1006 NOSIG=
202309132230 METAR VABB 132230Z 25005KT 2500 HZ SCT018 SCT025 27/26 Q1006 NOSIG=
202309132300 METAR VABB 132300Z 24007KT 2500 HZ SCT018 SCT025 28/26 Q1006 NOSIG=
202309132330 METAR VABB 132330Z 25007KT 2500 HZ SCT018 SCT025 28/26 Q1006 NOSIG=
202309140000 METAR VABB 140000Z 30006KT 2500 -RA SCT018 SCT025 27/26 Q1006 TEMPO 2100 SHRA=
202309140030 METAR VABB 140030Z 14004KT 2500 BR SCT018 SCT025 27/26 Q1006 NOSIG=
202309140100 METAR VABB 140100Z 10004KT 2500 HZ SCT018 SCT025 27/26 Q1006 NOSIG=
202309140130 METAR VABB 140130Z 09005KT 2500 HZ SCT018 SCT025 27/26 Q1007 NOSIG=
202309140200 METAR VABB 140200Z 11007KT 2500 HZ SCT018 SCT025 26/26 Q1007 NOSIG=
202309140230 METAR VABB 140230Z 33004KT 2500 VCSH FEW012 SCT018 FEW025TCU BKN090 26/26 Q1008 TEMPO 1500 SHRA=
202309140300 METAR VABB 140300Z 19004KT 1500 R27/1800 RA FEW012 SCT015 FEW025TCU OVC080 26/26 Q1008 TEMPO 0800 +SHRA=
202309140330 METAR VABB 140330Z 12004KT 2100 VCSH FEW012 SCT015 FEW025TCU BKN090 26/25 Q1008 TEMPO 1500 SHRA=
202309140400 METAR VABB 140400Z 20004KT 2100 VCSH FEW012 SCT015 FEW025TCU BKN090 26/26 Q1008 TEMPO 1500 SHRA=
202309140430 METAR VABB 140430Z 13005KT 2100 VCSH FEW012 SCT015 FEW025TCU BKN090 27/26 Q1008 TEMPO 1500 SHRA=
202309140500 METAR VABB 140500Z 12005KT 2500 HZ FEW012 SCT015 FEW025TCU BKN090 28/26 Q1008 NOSIG=
202309140530 METAR VABB 140530Z 10007KT 2500 HZ FEW012 SCT015 FEW025TCU BKN090 30/27 Q1008 NOSIG=
202309140600 METAR VABB 140600Z 21003KT 2500 HZ SCT015 FEW025TCU BKN090 29/26 Q1008 NOSIG=
202309140630 METAR VABB 140630Z 27005KT 2500 HZ SCT015 FEW025TCU BKN090 30/26 Q1007 BECMG 3000 HZ=
202309140700 METAR VABB 140700Z 30009KT 3000 HZ SCT018 FEW025TCU BKN090 31/25 Q1007 NOSIG=
202309140730 METAR VABB 140730Z 25011KT 3000 HZ SCT018 FEW025TCU BKN090 31/25 Q1006 NOSIG=
202309140800 METAR VABB 140800Z 28008KT 3000 HZ SCT018 FEW025TCU BKN090 31/25 Q1006 NOSIG=
202309140830 METAR VABB 140830Z 23009KT 3000 HZ SCT018 FEW025TCU BKN090 30/24 Q1006 NOSIG=
202309140900 METAR VABB 140900Z 22009KT 3000 VCSH FEW012 SCT018 FEW025TCU BKN090 30/24 Q1005 TEMPO 1500 SHRA=
202309140930 METAR VABB 140930Z 25004KT 3000 VCSH FEW012 SCT018 FEW025TCU BKN090 29/24 Q1005 TEMPO 1500 SHRA=
202309141000 METAR VABB 141000Z 25004KT 3000 VCSH FEW012 SCT018 FEW025TCU BKN090 29/24 Q1005 TEMPO 1500 SHRA=
202309141030 METAR VABB 141030Z 10011KT 2500 VCSH FEW012 SCT018 FEW025TCU OVC080 28/26 Q1005 TEMPO 1500 SHRA=
202309141100 METAR VABB 141100Z 09010KT 1600 SHRA SCT012 SCT018 FEW025TCU OVC080 26/25 Q1005 TEMPO 0800 +SHRA=
202309141130 METAR VABB 141130Z 15008KT 0800 R27/1000 +RA SCT010 SCT018 FEW025TCU OVC080 25/25 Q1005 TEMPO 1500 SHRA=
202309141200 METAR VABB 141200Z 17005KT 0800 R27/1000 +RA SCT010 SCT018 FEW025TCU OVC080 25/25 Q1006 TEMPO 0300 +RA=
202309141230 METAR VABB 141230Z 00000KT 0700 R27/1000 +RA SCT010 SCT018 FEW025TCU OVC080 24/24 Q1006 TEMPO 0300 +RA=
202309141300 METAR VABB 141300Z 10006KT 1800 -DZ SCT012 SCT018 FEW025 BKN090 25/24 Q1006 TEMPO 0800 +RA=
202309141330 METAR VABB 141330Z 07005KT 1500 VCSH SCT012 SCT018 FEW025TCU BKN090 25/25 Q1006 TEMPO 0800 SHRA=
202309141400 METAR VABB 141400Z 07006KT 2100 -DZ FEW012 SCT018 FEW025TCU BKN090 25/25 Q1006 NOSIG=
202309141430 METAR VABB 141430Z 06005KT 2200 BR FEW012 SCT018 FEW025TCU BKN090 25/25 Q1006 NOSIG=
202309141500 METAR VABB 141500Z 14006KT 2200 BR FEW012 SCT018 FEW025TCU BKN090 25/25 Q1006 TEMPO 1500 SHRA=
202309141530 METAR VABB 141530Z 12005KT 2200 BR FEW012 SCT018 FEW025TCU BKN090 25/25 Q1007 TEMPO 1500 SHRA=
202309141600 METAR VABB 141600Z 12005KT 2200 BR FEW012 SCT018 FEW025TCU OVC090 25/25 Q1007 TEMPO 1500 SHRA=
202309141630 METAR VABB 141630Z 12006KT 2200 BR FEW012 SCT018 FEW025TCU OVC090 26/25 Q1007 TEMPO 1500 SHRA=
202309141700 METAR VABB 141700Z 14005KT 2200 BR FEW012 SCT018 FEW025TCU OVC090 26/25 Q1007 TEMPO 1500 SHRA=
202309141730 METAR VABB 141730Z 00000KT 2200 BR FEW012 SCT018 FEW025TCU OVC090 26/25 Q1007 TEMPO 1500 SHRA=
202309141800 METAR VABB 141800Z VRB03KT 2200 BR FEW012 SCT018 FEW025TCU OVC090 26/25 Q1007 TEMPO 1500 SHRA=
202309141830 METAR VABB 141830Z 15004KT 2200 BR FEW012 SCT018 FEW025TCU OVC090 26/25 Q1007 TEMPO 1500 SHRA=
202309141900 METAR VABB 141900Z 00000KT 2200 BR FEW012 SCT018 FEW025TCU OVC090 26/25 Q1007 TEMPO 1500 SHRA=
202309141930 METAR VABB 141930Z 00000KT 2200 BR FEW012 SCT018 FEW025TCU OVC090 26/25 Q1006 TEMPO 1500 SHRA=
202309142000 METAR VABB 142000Z 14004KT 2100 BR FEW012 SCT018 FEW025TCU OVC090 27/25 Q1006 TEMPO 1500 SHRA=
202309142030 METAR VABB 142030Z 07005KT 2200 BR FEW012 SCT018 FEW025TCU OVC090 26/25 Q1006 TEMPO 1500 SHRA=
202309142100 METAR VABB 142100Z 12007KT 2200 BR FEW012 SCT018 FEW025TCU OVC090 26/25 Q1006 TEMPO 1500 SHRA=
202309142130 METAR VABB 142130Z 10007KT 2200 BR FEW012 SCT020 FEW025TCU OVC090 26/25 Q1006 TEMPO 1500 SHRA=
202309142200 METAR VABB 142200Z 08005KT 2200 BR FEW012 SCT020 FEW025TCU BKN090 26/25 Q1006 NOSIG=
202309142230 METAR VABB 142230Z 09004KT 2200 BR FEW012 SCT020 FEW025TCU BKN090 26/25 Q1005 NOSIG=
202309142300 METAR VABB 142300Z 11005KT 2200 BR FEW012 SCT020 FEW025TCU BKN090 26/25 Q1005 NOSIG=
202309142330 METAR VABB 142330Z 12003KT 2200 BR SCT018 SCT025 BKN090 26/25 Q1005 NOSIG=
202309150000 METAR VABB 150000Z 10004KT 2200 BR SCT018 SCT025 BKN090 26/25 Q1006 NOSIG=
202309150030 METAR VABB 150030Z 12004KT 2200 BR SCT018 SCT025 BKN090 26/25 Q1006 NOSIG=
202309150100 METAR VABB 150100Z 11006KT 2200 BR SCT018 SCT025 BKN090 26/25 Q1006 NOSIG=
202309150130 METAR VABB 150130Z 11004KT 2500 BR SCT018 SCT025 BKN090 26/25 Q1007 NOSIG=
202309150200 METAR VABB 150200Z 07005KT 2500 BR SCT018 SCT025 BKN090 26/25 Q1007 NOSIG=
202309150230 METAR VABB 150230Z 03003KT 2500 VCSH SCT018 SCT025 BKN090 27/25 Q1007 TEMPO 1500 SHRA=
202309150300 METAR VABB 150300Z 02003KT 2200 -RA SCT018 FEW025TCU BKN090 27/25 Q1007 TEMPO 1500 SHRA=
202309150330 METAR VABB 150330Z 00000KT 2500 DZ SCT018 FEW025TCU BKN090 27/26 Q1008 TEMPO 1500 SHRA=
202309150400 METAR VABB 150400Z 00000KT 2200 HZ SCT018 FEW025TCU BKN090 28/26 Q1008 TEMPO 1500 SHRA=
202309150430 METAR VABB 150430Z 17006KT 2200 HZ SCT018 FEW025TCU BKN090 27/26 Q1008 NOSIG=
202309150500 METAR VABB 150500Z 14005KT 2500 HZ SCT018 SCT025 BKN090 28/25 Q1008 NOSIG=
202309150530 METAR VABB 150530Z 22005KT 2500 HZ SCT018 SCT025 BKN090 29/25 Q1008 NOSIG=
202309150600 METAR VABB 150600Z 26004KT 3000 HZ SCT018 SCT025 BKN100 30/26 Q1008 NOSIG=
202309150630 METAR VABB 150630Z 25011KT 3500 HZ SCT018 SCT025 BKN100 31/25 Q1008 NOSIG=
202309150700 METAR VABB 150700Z 25009KT 4000 HZ SCT018 SCT025 BKN100 31/26 Q1008 NOSIG=
202309150730 METAR VABB 150730Z 24012KT 4000 HZ SCT018 SCT025 BKN100 30/25 Q1007 NOSIG=
202309150800 METAR VABB 150800Z 26008KT 4000 HZ SCT018 SCT025 BKN100 31/26 Q1007 NOSIG=
202309150830 METAR VABB 150830Z 26010KT 4000 HZ SCT018 SCT025 BKN100 31/26 Q1006 NOSIG=
202309150900 METAR VABB 150900Z 26011KT 4000 HZ SCT018 SCT025 BKN100 31/26 Q1006 NOSIG=
202309150930 METAR VABB 150930Z 27010KT 4000 HZ SCT018 SCT025 BKN100 30/25 Q1006 NOSIG=
202309151000 METAR VABB 151000Z 25009KT 4000 HZ SCT018 SCT025 BKN100 30/25 Q1006 NOSIG=
202309151030 METAR VABB 151030Z 24011KT 4000 HZ SCT018 SCT025 BKN100 30/25 Q1005 NOSIG=
202309151100 METAR VABB 151100Z 26010KT 4000 VCSH FEW012 SCT018 SCT025 BKN090 30/29 Q1005 TEMPO 1500 SHRA=
202309151130 METAR VABB 151130Z 27007G17KT 2100 -RA FEW012 SCT018 FEW025TCU BKN090 28/25 Q1005 TEMPO 1500 SHRA=
202309151200 METAR VABB 151200Z 26007KT 3000 VCSH FEW012 SCT018 FEW025TCU BKN090 28/28 Q1005 TEMPO 1500 SHRA=
202309151230 METAR VABB 151230Z 25008KT 3500 HZ SCT018 SCT025 BKN090 29/26 Q1006 NOSIG=
202309151300 METAR VABB 151300Z 26009KT 3500 HZ FEW018 SCT025 BKN100 29/25 Q1006 NOSIG=
202309151330 METAR VABB 151330Z 25009KT 3500 HZ FEW018 SCT025 BKN100 29/25 Q1006 NOSIG=
202309151400 METAR VABB 151400Z 25007KT 4000 BR FEW020 SCT100 29/25 Q1006 NOSIG=
202309151430 METAR VABB 151430Z 24009KT 4000 BR SCT020 SCT100 29/26 Q1006 NOSIG=
202309151500 METAR VABB 151500Z 23008KT 4000 HZ SCT020 SCT100 29/25 Q1006 NOSIG=
202309151530 METAR VABB 151530Z 24008KT 3500 HZ SCT018 SCT025 BKN090 29/26 Q1007 BECMG 3000 HZ=
202309151600 METAR VABB 151600Z 23006KT 3000 HZ SCT018 SCT025 BKN090 29/26 Q1007=
202309151630 METAR VABB 151630Z 23007KT 3000 HZ SCT018 SCT025 BKN090 29/25 Q1008 NOSIG=
202309151700 METAR VABB 151700Z 23005KT 3000 HZ SCT018 SCT025 BKN090 29/25 Q1008 NOSIG=
202309151730 METAR VABB 151730Z 24006KT 3000 HZ SCT018 SCT025 BKN090 29/26 Q1008 NOSIG=
202309151800 METAR VABB 151800Z 23007KT 3000 HZ SCT018 FEW025TCU BKN090 29/26 Q1007 NOSIG=
202309151830 METAR VABB 151830Z 22006KT 3000 HZ SCT018 FEW025TCU BKN090 29/26 Q1007 NOSIG=
202309151900 METAR VABB 151900Z 25006KT 3000 HZ SCT018 FEW025TCU BKN090 28/27 Q1007 NOSIG=
202309151930 METAR VABB 151930Z 24008KT 3000 HZ SCT018 FEW025TCU BKN090 28/26 Q1006 NOSIG=
202309152000 METAR VABB 152000Z 23008KT 3000 HZ SCT018 FEW025TCU BKN090 29/26 Q1006 NOSIG=
202309152030 METAR VABB 152030Z 24007KT 3000 HZ SCT018 FEW025TCU BKN090 28/26 Q1006 NOSIG=
202309152100 METAR VABB 152100Z 24011KT 2500 HZ SCT018 FEW025TCU BKN090 29/26 Q1006 NOSIG=
202309152130 METAR VABB 152130Z 25011KT 2500 HZ SCT018 FEW025TCU BKN090 29/26 Q1005 NOSIG=
202309152200 METAR VABB 152200Z 25008KT 2500 HZ SCT018 FEW025TCU BKN090 29/26 Q1005 NOSIG=
202309152230 METAR VABB 152230Z 24009KT 2500 -DZ SCT018 FEW025TCU BKN090 28/26 Q1005 TEMPO 1500 SHRA=
202309152300 METAR VABB 152300Z 24009KT 2500 HZ SCT018 FEW025TCU BKN090 28/25 Q1005 TEMPO 1500 SHRA=
202309152330 METAR VABB 152330Z 25008KT 2500 HZ SCT018 FEW025TCU BKN090 28/26 Q1005 NOSIG=
202309160000 METAR VABB 160000Z 24008KT 2500 HZ SCT018 FEW025TCU BKN090 28/26 Q1005 NOSIG=
202309160030 METAR VABB 160030Z 22010KT 2500 HZ SCT018 FEW025TCU BKN090 28/26 Q1005 TEMPO 1500 SHRA=
202309160100 METAR VABB 160100Z 22008KT 3000 HZ SCT018 FEW025TCU BKN090 28/25 Q1006 NOSIG=
202309160130 METAR VABB 160130Z 22009KT 3000 HZ SCT018 FEW025TCU BKN090 28/25 Q1006 NOSIG=
202309160200 METAR VABB 160200Z 23005KT 3000 HZ SCT018 FEW025TCU BKN090 28/26 Q1006 NOSIG=
202309160230 METAR VABB 160230Z 22004KT 3000 HZ SCT018 FEW025TCU BKN090 28/26 Q1006 NOSIG=
202309160300 METAR VABB 160300Z 23008KT 2500 VCSH FEW012 SCT018 FEW025TCU OVC090 29/26 Q1007 TEMPO 1500 SHRA=
202309160330 METAR VABB 160330Z 26008KT 2100 BR FEW012 SCT018 FEW025TCU OVC090 28/27 Q1007 NOSIG=
202309160400 METAR VABB 160400Z 25009KT 2500 HZ FEW012 SCT018 FEW025TCU BKN090 29/26 Q1007 NOSIG=
202309160430 METAR VABB 160430Z 26012KT 2500 HZ FEW012 SCT018 FEW025TCU BKN090 29/26 Q1007 NOSIG=
202309160500 METAR VABB 160500Z 26012KT 2500 HZ FEW012 SCT018 FEW025TCU BKN090 30/26 Q1007 NOSIG=
202309160530 METAR VABB 160530Z 25011KT 2500 HZ FEW012 SCT018 FEW025TCU BKN090 30/27 Q1007 NOSIG=
202309160600 METAR VABB 160600Z 24010KT 3000 HZ FEW012 SCT018 FEW025TCU OVC090 30/26 Q1007 NOSIG=
202309160630 METAR VABB 160630Z 26013KT 3000 HZ FEW012 SCT018 FEW025TCU OVC090 30/26 Q1007 NOSIG=
202309160700 METAR VABB 160700Z 26011KT 3000 HZ FEW012 SCT018 FEW025TCU OVC090 30/26 Q1007 NOSIG=
202309160730 METAR VABB 160730Z 26012KT 3000 VCSH FEW012 SCT018 FEW025TCU OVC090 30/26 Q1007 NOSIG=
202309160800 METAR VABB 160800Z 25013KT 3000 VCSH FEW012 SCT018 FEW025TCU OVC090 30/26 Q1006 NOSIG=
202309160830 METAR VABB 160830Z 25012KT 3000 VCSH FEW012 SCT018 FEW025TCU OVC090 30/26 Q1006 NOSIG=
202309160900 METAR VABB 160900Z 26012KT 3000 HZ FEW012 SCT018 FEW025TCU OVC090 30/26 Q1006 NOSIG=
202309160930 METAR VABB 160930Z 25007G17KT 3000 -DZ FEW012 SCT018 FEW025TCU OVC090 29/26 Q1006 TEMPO 1500 SHRA=
202309161000 METAR VABB 161000Z 25012KT 3000 VCSH FEW012 SCT018 FEW025TCU OVC080 30/26 Q1005 NOSIG=
202309161030 METAR VABB 161030Z 23010KT 3000 HZ FEW012 SCT018 FEW025TCU OVC080 28/27 Q1005 TEMPO 1500 SHRA=
202309161100 METAR VABB 161100Z 24009G19KT 3000 HZ FEW012 SCT018 FEW025TCU OVC080 29/27 Q1005 NOSIG=
202309161130 METAR VABB 161130Z 24013KT 3000 HZ FEW012 SCT018 FEW025TCU OVC080 30/27 Q1005 TEMPO 1500 SHRA=
202309161200 METAR VABB 161200Z 24010KT 3000 HZ FEW012 SCT018 FEW025TCU OVC090 29/26 Q1005 NOSIG=
202309161230 METAR VABB 161230Z 24008KT 1500 RA FEW012 SCT018 FEW025TCU OVC090 29/26 Q1005 TEMPO 0800 +RA=
202309161300 METAR VABB 161300Z 25009KT 2500 -DZ FEW012 SCT018 FEW025TCU OVC090 25/25 Q1005 TEMPO 1500 SHRA=
202309161330 METAR VABB 161330Z 24008KT 2500 HZ FEW012 SCT018 FEW025TCU OVC090 28/26 Q1005 TEMPO 1500 SHRA=
202309161400 METAR VABB 161400Z 23006KT 2500 HZ FEW012 SCT018 FEW025TCU OVC090 28/26 Q1005 NOSIG=
202309161430 METAR VABB 161430Z 24009KT 2500 HZ FEW012 SCT018 FEW025TCU OVC090 28/26 Q1005 NOSIG=
202309161500 METAR VABB 161500Z 24009KT 2500 HZ FEW012 SCT018 FEW025TCU OVC090 29/26 Q1006 TEMPO 1500 SHRA=
202309161530 METAR VABB 161530Z 24010KT 2500 HZ FEW012 SCT018 FEW025TCU OVC090 29/26 Q1006 NOSIG=
202309161600 METAR VABB 161600Z 24010KT 2500 HZ SCT018 BKN090 29/26 Q1006 NOSIG=
202309161630 METAR VABB 161630Z 24011KT 2500 HZ SCT018 SCT025 BKN100 29/26 Q1007 NOSIG=
202309161700 METAR VABB 161700Z 24011KT 2500 HZ SCT018 SCT025 BKN100 29/26 Q1007 NOSIG=
202309161730 METAR VABB 161730Z 23010KT 2500 HZ SCT018 SCT025 BKN100 29/26 Q1007 NOSIG=
202309161800 METAR VABB 161800Z 23011KT 2500 HZ SCT018 SCT025 BKN100 29/26 Q1007 NOSIG=
202309161830 METAR VABB 161830Z 24008KT 2500 HZ SCT018 SCT025 BKN100 29/26 Q1006 NOSIG=
202309161900 METAR VABB 161900Z 24009KT 2500 HZ SCT018 SCT100 29/26 Q1006 NOSIG=
202309161930 METAR VABB 161930Z 25010KT 2500 HZ SCT018 SCT100 29/26 Q1006 NOSIG=
202309162000 METAR VABB 162000Z 24008KT 2500 HZ SCT018 SCT100 29/25 Q1006 NOSIG=
202309162030 METAR VABB 162030Z 24010KT 2500 HZ SCT018 SCT100 29/26 Q1005 NOSIG=
202309162100 METAR VABB 162100Z 24010KT 2500 HZ SCT018 SCT100 28/26 Q1005 NOSIG=
202309162130 METAR VABB 162130Z 24010KT 2500 HZ SCT018 SCT100 28/26 Q1005 NOSIG=
202309162200 METAR VABB 162200Z 22009KT 2500 HZ FEW018 SCT025 BKN100 28/26 Q1004 NOSIG=
202309162230 METAR VABB 162230Z 23009KT 2500 HZ FEW018 SCT025 BKN100 28/26 Q1004 NOSIG=
202309162300 METAR VABB 162300Z 24009KT 2500 HZ FEW018 SCT025 BKN100 28/26 Q1004 NOSIG=
202309162330 METAR VABB 162330Z 22010G20KT 2500 BR SCT018 SCT025 BKN100 27/25 Q1005 NOSIG=
202309170000 METAR VABB 170000Z 22010KT 2500 BR SCT018 SCT025 BKN100 26/25 Q1005 NOSIG=
202309170030 METAR VABB 170030Z 23006KT 2500 BR FEW018 SCT025 BKN100 27/25 Q1005 NOSIG=
202309170100 METAR VABB 170100Z 21007KT 2500 BR FEW018 SCT025 BKN100 27/25 Q1005 BECMG 3000 BR=
202309170130 METAR VABB 170130Z 23007KT 3000 BR SCT018 BKN100 27/26 Q1005 NOSIG=
202309170200 METAR VABB 170200Z 22008KT 3000 BR SCT018 BKN100 28/26 Q1006 NOSIG=
202309170230 METAR VABB 170230Z 23010KT 3000 BR SCT018 BKN100 28/26 Q1006 NOSIG=
202309170300 METAR VABB 170300Z 24009KT 3000 BR SCT018 BKN100 29/26 Q1006 NOSIG=
202309170330 METAR VABB 170330Z 24012KT 3000 BR SCT020 BKN100 29/26 Q1006 NOSIG=
202309170400 METAR VABB 170400Z 26021G31KT 1500 RA FEW010 SCT015 FEW025TCU BKN090 25/24 Q1007 TEMPO 0800 SHRA=
202309170430 METAR VABB 170430Z 23010KT 2200 -DZ FEW012 SCT018 FEW025TCU BKN090 25/25 Q1007 TEMPO 1500 SHRA=
202309170500 METAR VABB 170500Z 24009KT 3000 VCSH FEW012 SCT018 FEW025TCU BKN090 28/27 Q1007 TEMPO 1500 SHRA=
202309170530 METAR VABB 170530Z 24010G20KT 3000 RA FEW012 SCT018 FEW025TCU OVC080 26/25 Q1007 TEMPO 1500 SHRA=
202309170600 METAR VABB 170600Z 24007KT 0800 R27/1000 +RA FEW012 SCT018 FEW025TCU OVC080 27/27 Q1006 TEMPO 0600 +SHRA=
202309170630 METAR VABB 170630Z 33012KT 2100 -DZ FEW010 SCT018 FEW025TCU OVC080 26/26 Q1006 TEMPO 1500 SHRA=
202309170700 METAR VABB 170700Z 27007KT 2100 VCSH FEW012 SCT018 FEW025TCU BKN090 27/27 Q1006 TEMPO 1500 SHRA=
202309170730 METAR VABB 170730Z 25011G21KT 2100 VCSH FEW012 SCT018 FEW025TCU BKN090 30/27 Q1005 TEMPO 1500 SHRA=
202309170800 METAR VABB 170800Z 21011KT 2500 VCSH FEW012 SCT018 FEW025TCU BKN090 30/27 Q1005 TEMPO 1500 SHRA=
202309170830 METAR VABB 170830Z 24009G19KT 2500 VCSH FEW012 SCT018 FEW025TCU BKN090 31/27 Q1004 TEMPO 1500 SHRA=
202309170930 METAR VABB 170930Z 24013KT 2500 VCSH FEW012 SCT018 FEW025TCU BKN090 30/27 Q1004 TEMPO 1500 SHRA=
202309171000 METAR VABB 171000Z 24009G19KT 2500 HZ FEW012 SCT018 FEW025TCU BKN090 30/27 Q1004 TEMPO 1500 SHRA=
202309171030 METAR VABB 171030Z 24007G17KT 2500 HZ FEW012 SCT018 FEW025TCU BKN090 30/27 Q1004 TEMPO 1500 SHRA=
202309171100 METAR VABB 171100Z 24009G19KT 2500 HZ FEW012 SCT018 FEW025TCU BKN090 30/26 Q1004 TEMPO 1500 SHRA=
202309171130 METAR VABB 171130Z 24010G20KT 2500 HZ SCT018 FEW025TCU BKN090 30/26 Q1004 TEMPO 1500 SHRA=
202309171200 METAR VABB 171200Z 23007G17KT 2100 -RA FEW012 SCT018 FEW025TCU BKN090 30/26 Q1004 TEMPO 1500 SHRA=
202309171230 METAR VABB 171230Z 24012KT 2100 HZ SCT018 FEW025TCU BKN090 39/27 Q1004 NOSIG=
202309171300 METAR VABB 171300Z 24009KT 2100 HZ SCT018 FEW025TCU BKN090 29/26 Q1004 NOSIG=
202309171330 METAR VABB 171330Z 24007KT 2500 HZ SCT018 FEW025TCU BKN090 29/26 Q1004 TEMPO 1500 SHRA=
202309171500 METAR VABB 171500Z 24006KT 2500 HZ SCT018 FEW025TCU BKN090 29/26 Q1004 NOSIG=
202309171530 METAR VABB 171530Z 23008KT 2500 HZ SCT018 FEW025TCU BKN100 28/26 Q1005 NOSIG=
202309171600 METAR VABB 171600Z 23006KT 2500 HZ SCT018 FEW025TCU BKN100 28/25 Q1005 NOSIG=
202309171630 METAR VABB 171630Z 21008KT 2500 HZ SCT018 FEW025TCU BKN100 28/25 Q1005 NOSIG=
202309171700 METAR VABB 171700Z 22006KT 2500 HZ SCT018 FEW025TCU BKN100 28/25 Q1005 NOSIG=
202309171730 METAR VABB 171730Z 22007KT 2500 HZ FEW018 FEW025TCU BKN100 28/26 Q1005 NOSIG=
202309171800 METAR VABB 171800Z 22005KT 2500 HZ FEW018 FEW025TCU BKN100 28/26 Q1005 NOSIG=
202309171830 METAR VABB 171830Z 23010KT 2500 HZ FEW018 FEW025TCU BKN100 28/26 Q1005 NOSIG=
202309171900 METAR VABB 171900Z 23007KT 2500 HZ SCT018 FEW025TCU BKN100 28/26 Q1005 TEMPO 1500 SHRA=
202309171930 METAR VABB 171930Z 23007KT 2500 HZ SCT018 FEW025TCU BKN100 28/26 Q1005 TEMPO 1500 SHRA=
202309172100 METAR VABB 172100Z 22006KT 2500 HZ FEW018 FEW025TCU SCT100 28/25 Q1004 NOSIG=
202309172130 METAR VABB 172130Z 22006KT 2500 HZ SCT018 FEW025TCU SCT100 28/26 Q1004 NOSIG=
202309172200 METAR VABB 172200Z 23006KT 2500 HZ SCT018 FEW025TCU BKN100 28/26 Q1004 NOSIG=
202309172230 METAR VABB 172230Z 23008KT 2500 HZ SCT018 SCT025 BKN100 28/26 Q1004 NOSIG=
202309172300 METAR VABB 172300Z 24010KT 2500 HZ SCT018 SCT025 BKN100 28/26 Q1004 NOSIG=
202309172330 METAR VABB 172330Z 23007KT 2200 -DZ SCT018 SCT025 BKN090 27/25 Q1004 TEMPO 1500 SHRA=
202309180000 METAR VABB 180000Z 22003KT 2200 BR SCT018 SCT025 BKN090 27/25 Q1004 NOSIG=
202309180030 METAR VABB 180030Z 23009KT 2200 BR SCT018 SCT025 BKN090 28/26 Q1004 NOSIG=
202309180100 METAR VABB 180100Z 22008KT 2500 HZ SCT018 FEW025 SCT100 28/26 Q1004 NOSIG=
202309180130 METAR VABB 180130Z 24005KT 2500 HZ SCT018 SCT025 BKN100 28/26 Q1004 NOSIG=
202309180200 METAR VABB 180200Z 21009KT 2500 -DZ FEW012 SCT018 SCT025 BKN090 26/26 Q1004 NOSIG=
202309180230 METAR VABB 180230Z 19005KT 3000 BR SCT020 SCT025 BKN090 27/25 Q1005 NOSIG=
202309180300 METAR VABB 180300Z 21007KT 3000 BR SCT020 SCT025 BKN090 29/27 Q1005 NOSIG=
202309180330 METAR VABB 180330Z 22010KT 3000 BR SCT020 SCT025 BKN090 29/27 Q1006 NOSIG=
202309180400 METAR VABB 180400Z 23011KT 3000 BR SCT020 SCT025 BKN090 29/29 Q1006 NOSIG=
202309180430 METAR VABB 180430Z 21007G17KT 3000 BR SCT020 SCT025 BKN090 30/26 Q1006 NOSIG=
202309180500 METAR VABB 180500Z 21007G17KT 3000 BR SCT020 SCT025 BKN090 30/27 Q1006 NOSIG=
202309180530 METAR VABB 180530Z 21011G21KT 3000 HZ SCT020 SCT025 BKN090 31/27 Q1006 NOSIG=
202309180600 METAR VABB 180600Z 22008G18KT 3000 HZ SCT020 SCT025 BKN090 30/27 Q1006 NOSIG=
202309180630 METAR VABB 180630Z 22008G18KT 3000 HZ SCT020 SCT025 BKN090 31/27 Q1005 NOSIG=
202309180700 METAR VABB 180700Z 21007G17KT 2500 HZ SCT020 SCT025 BKN090 29/26 Q1005 NOSIG=
202309180730 METAR VABB 180730Z 23011G21KT 2500 HZ SCT020 SCT025 BKN090 30/27 Q1005 BECMG 3000 HZ=
202309180800 METAR VABB 180800Z 21011G21KT 3000 VCSH SCT020 SCT025 BKN090 30/27 Q1004 TEMPO 1500 SHRA=
202309180830 METAR VABB 180830Z 24007G17KT 1700 RA FEW012 SCT020 BKN090 27/26 Q1004 TEMPO 0800 +SHRA=
202309180900 METAR VABB 180900Z 24012G22KT 2500 HZ FEW012 SCT020 BKN090 28/28 Q1004 TEMPO 1500 SHRA=
202309180930 METAR VABB 180930Z 26007G17KT 2500 HZ FEW012 SCT020 BKN090 30/28 Q1004 TEMPO 1500 SHRA=
202309181000 METAR VABB 181000Z 23008G18KT 2500 HZ FEW018 SCT025 BKN100 31/27 Q1003 BECMG 3000 HZ=
202309181030 METAR VABB 181030Z 21010KT 3000 HZ FEW018 SCT025 BKN100 30/27 Q1003 NOSIG=
202309181100 METAR VABB 181100Z 22014KT 2500 VCSH FEW010 SCT018 BKN090 30/26 Q1003 TEMPO 1500 SHRA=
202309181130 METAR VABB 181130Z 20005KT 2200 VCSH FEW010 SCT018 BKN090 26/25 Q1004 TEMPO 1500 SHRA=
202309181200 METAR VABB 181200Z 24009KT 2500 -DZ SCT018 SCT025 BKN090 27/27 Q1004 NOSIG=
202309181230 METAR VABB 181230Z 23011KT 2500 HZ SCT018 SCT025 BKN090 28/27 Q1004 NOSIG=
202309181300 METAR VABB 181300Z 22007KT 2500 VCSH SCT018 SCT025 BKN090 28/27 Q1004 NOSIG=
202309181330 METAR VABB 181330Z 21010KT 2500 -RA FEW010 SCT018 BKN090 28/26 Q1005 TEMPO 1500 SHRA=
202309181400 METAR VABB 181400Z 25014G24KT 2100 RA FEW010 SCT018 FEW025TCU OVC090 26/26 Q1005 TEMPO 1500 SHRA=
202309181430 METAR VABB 181430Z 25010KT 2500 -DZ SCT018 FEW025TCU OVC090 26/26 Q1005 TEMPO 1500 SHRA=
202309181500 METAR VABB 181500Z 24007KT 2500 DZ SCT018 FEW025TCU OVC090 27/26 Q1006 TEMPO 1500 SHRA=
202309181530 METAR VABB 181530Z 23005KT 2500 -DZ SCT018 FEW025TCU OVC090 27/26 Q1006 TEMPO 1500 SHRA=
202309181600 METAR VABB 181600Z 15003KT 2500 DZ SCT018 FEW025TCU OVC090 27/26 Q1006 TEMPO 1500 SHRA=
202309181630 METAR VABB 181630Z 18004KT 2500 BR SCT018 FEW025TCU OVC080 27/26 Q1006 TEMPO 1500 SHRA=
202309181700 METAR VABB 181700Z 18005KT 2500 BR SCT018 FEW025TCU OVC080 28/26 Q1007 NOSIG=
202309181730 METAR VABB 181730Z 21008KT 1800 RA FEW012 SCT018 FEW025TCU OVC080 28/26 Q1007 TEMPO 1500 SHRA=
202309181800 METAR VABB 181800Z 24007KT 2100 VCSH FEW012 SCT018 FEW025TCU OVC080 26/26 Q1007 NOSIG=
202309181830 METAR VABB 181830Z 21005KT 2500 BR SCT018 FEW025TCU OVC080 27/26 Q1007 NOSIG=
202309181900 METAR VABB 181900Z 14003KT 2500 BR SCT018 FEW025TCU OVC080 27/27 Q1006 NOSIG=
202309181930 METAR VABB 181930Z 16006KT 2500 BR SCT018 FEW025TCU OVC080 27/27 Q1006 NOSIG=
202309182000 METAR VABB 182000Z 18007KT 2500 BR SCT018 FEW025TCU OVC090 27/26 Q1006 NOSIG=
202309182030 METAR VABB 182030Z 16006KT 2500 BR SCT018 FEW025TCU OVC090 27/26 Q1006 NOSIG=
202309182100 METAR VABB 182100Z 21007KT 2500 -DZ SCT018 FEW025TCU OVC090 27/26 Q1005 TEMPO 1500 SHRA=
202309182130 METAR VABB 182130Z 19004KT 2500 BR SCT018 FEW025TCU OVC090 27/27 Q1005 NOSIG=
202309182200 METAR VABB 182200Z 16004KT 2500 BR SCT018 FEW025TCU BKN090 27/27 Q1005 NOSIG=
202309182230 METAR VABB 182230Z 17007KT 2500 BR SCT018 FEW025TCU BKN090 27/26 Q1005 NOSIG=
202309182300 METAR VABB 182300Z 16004KT 1800 -RA SCT015 FEW025TCU BKN090 27/27 Q1005 TEMPO 1500 SHRA=
202309182330 METAR VABB 182330Z 19009KT 2500 BR SCT018 FEW025TCU BKN090 28/27 Q1005 TEMPO 1500 SHRA=
202309190000 METAR VABB 190000Z 21007KT 2500 BR SCT018 FEW025TCU BKN090 28/26 Q1005 NOSIG=
202309190030 METAR VABB 190030Z 19006KT 2500 BR SCT018 FEW025TCU BKN090 28/26 Q1005 NOSIG=
202309190100 METAR VABB 190100Z 24007KT 2500 BR SCT018 FEW025TCU BKN100 28/26 Q1006 NOSIG=
202309190130 METAR VABB 190130Z 21006KT 2500 BR SCT018 FEW025TCU BKN100 28/27 Q1006 BECMG 3000 BR=
202309190200 METAR VABB 190200Z 19006KT 3000 HZ SCT018 FEW025TCU BKN100 28/26 Q1006 NOSIG=
202309190230 METAR VABB 190230Z 20006KT 2500 VCSH FEW012 SCT018 FEW025TCU BKN090 28/27 Q1007 TEMPO 1500 SHRA=
202309190300 METAR VABB 190300Z 21006KT 2500 HZ SCT018 FEW025TCU BKN090 28/28 Q1007 NOSIG=
202309190330 METAR VABB 190330Z 16008KT 2500 HZ SCT018 FEW025TCU BKN090 29/27 Q1007 BECMG 3000 HZ=
202309190400 METAR VABB 190400Z 18009KT 3000 VCSH FEW012 SCT018 FEW025TCU BKN090 28/27 Q1007 NOSIG=
202309190430 METAR VABB 190430Z 17007KT 2500 VCSH FEW010 SCT018 FEW025TCU BKN090 29/28 Q1007 TEMPO 1500 SHRA=
202309190500 METAR VABB 190500Z 22009KT 2500 HZ FEW012 SCT018 FEW025TCU BKN090 29/27 Q1007 NOSIG=
202309190530 METAR VABB 190530Z 22010KT 2500 HZ FEW012 SCT018 FEW025TCU BKN090 30/27 Q1007 NOSIG=
202309190600 METAR VABB 190600Z 22010G20KT 2500 HZ SCT018 FEW025TCU BKN090 31/27 Q1007 BECMG 3000 HZ=
202309190630 METAR VABB 190630Z 22013KT 3000 HZ SCT018 FEW025TCU BKN090 31/27 Q1007 NOSIG=
202309190700 METAR VABB 190700Z 21012G22KT 3000 HZ SCT018 FEW025TCU BKN090 31/27 Q1007 NOSIG=
202309190730 METAR VABB 190730Z 23009G19KT 3000 HZ SCT018 FEW025TCU BKN090 31/27 Q1007 NOSIG=
202309190800 METAR VABB 190800Z 23008G18KT 3000 HZ SCT018 FEW025TCU 31/27 Q1006 NOSIG=
202309190830 METAR VABB 190830Z 21012G22KT 3000 HZ SCT018 FEW025TCU 31/26 Q1006 NOSIG=
202309190900 METAR VABB 190900Z 22009G19KT 3000 HZ SCT018 FEW025TCU 31/27 Q1006 NOSIG=
202309190930 METAR VABB 190930Z 23012KT 3000 HZ SCT018 FEW025TCU 31/28 Q1006 NOSIG=
202309191000 METAR VABB 191000Z 22008G18KT 3000 HZ SCT018 FEW025TCU 31/26 Q1006 NOSIG=
202309191030 METAR VABB 191030Z 23009G19KT 3000 HZ SCT018 FEW025TCU 31/27 Q1005 NOSIG=
202309191100 METAR VABB 191100Z 24007G17KT 3000 HZ SCT018 FEW025TCU 30/27 Q1005 NOSIG=
202309191130 METAR VABB 191130Z 22012KT 3000 HZ SCT018 FEW025TCU 30/27 Q1005 NOSIG=
202309191200 METAR VABB 191200Z 24012KT 3000 HZ SCT018 FEW025TCU 30/29 Q1005 NOSIG=
202309191230 METAR VABB 191230Z 22012KT 3000 HZ SCT018 FEW025TCU 30/26 Q1005 NOSIG=
202309191300 METAR VABB 191300Z 22008KT 3000 HZ SCT018 FEW025TCU 29/26 Q1006 NOSIG=
202309191330 METAR VABB 191330Z 21008KT 3000 HZ SCT018 FEW025TCU 29/26 Q1006 NOSIG=
202309191400 METAR VABB 191400Z 17006KT 3000 HZ SCT018 FEW025TCU 29/27 Q1006 NOSIG=
202309191430 METAR VABB 191430Z 21007KT 3000 HZ SCT018 FEW025TCU 29/26 Q1007 NOSIG=
202309191500 METAR VABB 191500Z 18005KT 3000 HZ SCT018 FEW025TCU 29/26 Q1007 NOSIG=
202309191530 METAR VABB 191530Z 17008G18KT 3000 HZ SCT018 FEW025TCU 28/27 Q1007 NOSIG=
202309191600 METAR VABB 191600Z 16006KT 3000 HZ SCT018 FEW025TCU BKN090 28/27 Q1007 NOSIG=
202309191630 METAR VABB 191630Z 19010KT 3000 HZ SCT018 FEW025TCU BKN090 28/27 Q1008 NOSIG=
202309191700 METAR VABB 191700Z 15005KT 3000 BR SCT018 FEW025TCU BKN090 27/27 Q1008 NOSIG=
202309191730 METAR VABB 191730Z 17007KT 3000 BR SCT018 FEW025TCU BKN090 27/27 Q1008 NOSIG=
202309191800 METAR VABB 191800Z 17007KT 3000 BR SCT018 FEW025TCU BKN090 27/27 Q1008 NOSIG=
202309191830 METAR VABB 191830Z 17007KT 3000 BR SCT018 FEW025TCU BKN090 28/27 Q1007 NOSIG=
202309191900 METAR VABB 191900Z 16006KT 2500 BR FEW012 SCT018 FEW025TCU BKN090 27/27 Q1007 NOSIG=
202309191930 METAR VABB 191930Z 16006KT 2500 BR FEW012 SCT018 FEW025TCU BKN090 27/27 Q1007 NOSIG=
202309192000 METAR VABB 192000Z 16006KT 2500 BR SCT018 FEW025TCU BKN090 27/27 Q1007 NOSIG=
202309192030 METAR VABB 192030Z 20006KT 2500 BR FEW012 SCT018 FEW025TCU BKN090 27/27 Q1007 NOSIG=
202309192100 METAR VABB 192100Z 13005KT 2500 BR FEW012 SCT018 FEW025TCU BKN090 27/27 Q1007 NOSIG=
202309192130 METAR VABB 192130Z 20009KT 2100 -RA FEW012 SCT018 FEW025TCU BKN090 27/27 Q1006 TEMPO 1500 SHRA=
202309192200 METAR VABB 192200Z 20009KT 2500 VCSH FEW012 SCT018 FEW025TCU BKN090 27/27 Q1006 TEMPO 1500 SHRA=
202309192330 METAR VABB 192330Z 11005KT 2500 BR FEW012 SCT018 FEW025TCU BKN090 27/26 Q1006 TEMPO 1500 SHRA=
202309200000 METAR VABB 200000Z 03006KT 2100 -RA FEW012 SCT018 FEW025TCU BKN090 27/27 Q1006 TEMPO 1500 SHRA=
202309200030 METAR VABB 200030Z 14004KT 2500 BR FEW012 SCT018 FEW025TCU BKN090 27/27 Q1006 NOSIG=
202309200100 METAR VABB 200100Z 18003KT 2500 VCSH FEW012 SCT018 FEW025TCU BKN090 27/27 Q1007 TEMPO 1500 SHRA=
202309200130 METAR VABB 200130Z 14004KT 2500 BR FEW012 SCT018 FEW025TCU BKN090 27/27 Q1007 TEMPO 1500 SHRA=
202309200200 METAR VABB 200200Z 15005KT 2200 -RA FEW012 SCT018 FEW025TCU BKN090 27/27 Q1007 TEMPO 1500 SHRA=
202309200230 METAR VABB 200230Z 12004KT 2200 VCSH FEW012 SCT018 FEW025TCU BKN090 27/27 Q1007 TEMPO 1500 SHRA=
202309200300 METAR VABB 200300Z 12006KT 1700 -RA FEW012 SCT018 FEW025TCU BKN090 27/27 Q1008 TEMPO 0800 +SHRA=
202309200330 METAR VABB 200330Z 16005KT 2500 VCSH FEW012 SCT018 FEW025TCU BKN090 28/27 Q1008 TEMPO 1500 SHRA=
202309200400 METAR VABB 200400Z 19006KT 1800 -RA FEW012 SCT018 FEW025TCU BKN090 29/27 Q1008 TEMPO 1500 SHRA=
202309200430 METAR VABB 200430Z 21006KT 2100 -RA FEW012 SCT018 FEW025TCU BKN090 29/28 Q1008 TEMPO 1500 SHRA=
202309200500 METAR VABB 200500Z 23007KT 2500 HZ SCT018 FEW025TCU BKN090 29/28 Q1008 NOSIG=
202309200530 METAR VABB 200530Z 18007KT 2500 HZ SCT018 FEW025TCU BKN090 31/28 Q1008 BECMG 3000 HZ=
202309200600 METAR VABB 200600Z 18007G17KT 3000 HZ SCT018 SCT025 BKN090 31/28 Q1008 NOSIG=
202309200630 METAR VABB 200630Z 21009KT 3000 HZ SCT018 SCT025 BKN090 30/27 Q1008 NOSIG=
202309200700 METAR VABB 200700Z 23011KT 3000 HZ SCT018 SCT025 BKN090 31/27 Q1007 NOSIG=
202309200730 METAR VABB 200730Z 22007G17KT 1900 -SHRA FEW010 SCT018 FEW025TCU BKN090 28/27 Q1007 TEMPO 1500 SHRA=
202309200800 METAR VABB 200800Z 21008G18KT 2500 HZ SCT018 FEW025TCU BKN090 30/28 Q1006 NOSIG=
202309200830 METAR VABB 200830Z 22007KT 2500 HZ SCT018 FEW025TCU BKN090 30/27 Q1006 NOSIG=
202309200900 METAR VABB 200900Z 23007G17KT 1700 R27/1900 HZ SCT018 FEW025TCU BKN090 29/27 Q1006 TEMPO 1500 SHRA=
202309200930 METAR VABB 200930Z 23010KT 2100 R27/1900 HZ SCT018 FEW025TCU BKN090 30/27 Q1005 TEMPO 1500 SHRA=
202309201000 METAR VABB 201000Z 23007G17KT 2100 BR SCT018 FEW025TCU BKN090 29/27 Q1005 TEMPO 1500 SHRA=
202309201030 METAR VABB 201030Z 24010KT 2100 VCSH FEW012 SCT018 FEW025TCU BKN090 28/27 Q1005 TEMPO 1500 SHRA=
202309201100 METAR VABB 201100Z 24010KT 1000 R27/1200 RA FEW012 SCT018 FEW025TCU OVC080 28/27 Q1005 TEMPO 0600 +SHRA=
202309201130 METAR VABB 201130Z 23005KT 2100 VCSH FEW012 SCT018 FEW030CB OVC090 27/27 Q1005 TEMPO 1500 SHRA=
202309201200 METAR VABB 201200Z 23004KT 1500 -RA FEW012 SCT018 FEW030CB OVC090 27/27 Q1005 TEMPO 0800 SHRA=
202309201230 METAR VABB 201230Z 21005KT 2100 -RA FEW012 SCT018 FEW030CB OVC090 27/27 Q1005 TEMPO 1500 SHRA=
202309201300 METAR VABB 201300Z 22004KT 2500 -RA FEW012 SCT018 FEW030CB OVC090 27/27 Q1006 TEMPO 1500 SHRA=
202309201330 METAR VABB 201330Z 23004KT 2500 BR SCT018 FEW030CB BKN090 28/27 Q1006 NOSIG=
202309201400 METAR VABB 201400Z 15004KT 2100 -RA FEW012 SCT018 FEW030CB BKN090 28/27 Q1007 TEMPO 1500 SHRA=
202309201430 METAR VABB 201430Z 15004KT 1500 RA FEW010 SCT015 FEW030CB OVC090 27/27 Q1007 TEMPO 0800 +SHRA=
202309201500 METAR VABB 201500Z 13003KT 2100 BR SCT018 FEW030CB BKN090 27/27 Q1008 TEMPO 1500 SHRA=
202309201530 METAR VABB 201530Z 17004KT 2100 BR SCT018 FEW030CB BKN090 27/26 Q1008 TEMPO 1500 SHRA=
202309201600 METAR VABB 201600Z 12006KT 2100 -RA FEW012 SCT018 FEW030CB BKN090 27/26 Q1008 TEMPO 1500 SHRA=
202309201630 METAR VABB 201630Z 13006KT 2100 -DZ FEW012 SCT018 FEW030CB BKN090 27/26 Q1008 TEMPO 1500 SHRA=
202309201700 METAR VABB 201700Z 16007KT 2500 HZ SCT018 FEW030CB BKN090 27/27 Q1008 NOSIG=
202309201730 METAR VABB 201730Z 22004KT 2500 HZ SCT018 FEW030CB BKN090 27/27 Q1008 NOSIG=
202309201800 METAR VABB 201800Z 17003KT 2500 HZ SCT018 FEW030CB BKN090 27/27 Q1008 NOSIG=
202309201830 METAR VABB 201830Z 16004KT 2500 HZ SCT018 FEW030CB BKN090 27/27 Q1008 NOSIG=
202309201900 METAR VABB 201900Z 18003KT 2500 HZ SCT018 FEW030CB BKN090 27/27 Q1008 NOSIG=
202309201930 METAR VABB 201930Z 10004KT 2500 HZ SCT018 FEW030CB BKN090 27/27 Q1008 NOSIG=
202309202000 METAR VABB 202000Z 00000KT 2500 HZ SCT018 FEW030CB BKN090 27/27 Q1007 NOSIG=
202309202030 METAR VABB 202030Z 15003KT 2500 HZ SCT018 FEW030CB BKN090 27/27 Q1007 NOSIG=
202309202100 METAR VABB 202100Z 12004KT 2500 HZ SCT018 FEW030CB BKN090 27/27 Q1007 NOSIG=
202309202130 METAR VABB 202130Z 14003KT 2500 HZ SCT018 FEW030CB BKN090 27/27 Q1007 NOSIG=
202309202200 METAR VABB 202200Z 11003KT 2500 HZ SCT018 FEW030CB BKN090 27/27 Q1007 NOSIG=
202309202230 METAR VABB 202230Z 00000KT 2500 HZ SCT018 FEW025TCU BKN090 27/27 Q1006 NOSIG=
202309202300 METAR VABB 202300Z 14003KT 2500 HZ SCT018 FEW025TCU BKN090 27/27 Q1006 NOSIG=
202309202330 METAR VABB 202330Z 13003KT 2500 HZ SCT018 FEW025TCU BKN090 27/27 Q1007 NOSIG=
202309210000 METAR VABB 210000Z 12003KT 2500 HZ SCT018 FEW025TCU BKN090 27/27 Q1007 NOSIG=
202309210030 METAR VABB 210030Z 11004KT 2500 HZ SCT018 FEW025TCU BKN090 27/27 Q1007 NOSIG=
202309210100 METAR VABB 210100Z 14004KT 1800 -SHRA FEW012 SCT018 FEW025TCU BKN090 27/27 Q1007 TEMPO 1500 SHRA=
202309210130 METAR VABB 210130Z 00000KT 2200 HZ FEW012 SCT018 FEW025TCU BKN090 27/27 Q1007 NOSIG=
202309210200 METAR VABB 210200Z 16004KT 2500 HZ SCT018 FEW025TCU BKN090 27/26 Q1008 NOSIG=
202309210230 METAR VABB 210230Z 14006KT 2500 HZ SCT018 FEW025TCU BKN090 28/27 Q1008 TEMPO 1500 SHRA=
202309210300 METAR VABB 210300Z 00000KT 2500 HZ SCT018 FEW025TCU BKN090 28/27 Q1008 TEMPO 1500 SHRA=
202309210330 METAR VABB 210330Z 18005KT 2500 HZ SCT018 FEW025TCU BKN090 28/27 Q1009 NOSIG=
202309210400 METAR VABB 210400Z 21005KT 2500 HZ SCT018 FEW025TCU BKN090 28/27 Q1009 TEMPO 1500 SHRA=
202309210430 METAR VABB 210430Z 17007KT 2500 HZ SCT018 FEW025TCU BKN090 29/27 Q1009 TEMPO 1500 SHRA=
202309210500 METAR VABB 210500Z 16008KT 2500 HZ SCT018 FEW025TCU BKN090 29/27 Q1009 NOSIG=
202309210530 METAR VABB 210530Z 19007KT 3000 HZ SCT018 FEW025TCU BKN090 29/27 Q1009 NOSIG=
202309210600 METAR VABB 210600Z 20006KT 3000 HZ SCT018 FEW025TCU BKN090 30/27 Q1009 NOSIG=
202309210630 METAR VABB 210630Z 21006KT 3000 HZ SCT018 FEW025TCU BKN090 30/27 Q1008 NOSIG=
202309210700 METAR VABB 210700Z 22011KT 3000 HZ SCT018 FEW025TCU BKN090 30/27 Q1008 NOSIG=
202309210730 METAR VABB 210730Z 22008KT 3000 HZ SCT018 FEW030CB BKN090 29/27 Q1007 NOSIG=
202309210800 METAR VABB 210800Z 21008KT 3000 HZ SCT018 FEW030CB BKN090 30/25 Q1007 NOSIG=
202309210830 METAR VABB 210830Z 23008KT 3000 HZ SCT018 FEW030CB BKN090 30/24 Q1006 NOSIG=
202309210900 METAR VABB 210900Z 20008KT 3000 HZ SCT018 FEW030CB BKN090 31/26 Q1006 NOSIG=
202309210930 METAR VABB 210930Z 24009KT 3000 HZ FEW012 SCT015 FEW030CB BKN090 30/26 Q1006 NOSIG=
202309211000 METAR VABB 211000Z 23012KT 3500 HZ SCT018 SCT025 FEW030CB BKN090 30/27 Q1006 NOSIG=
202309211030 METAR VABB 211030Z 25013KT 3500 HZ SCT018 SCT025 FEW030CB BKN090 30/27 Q1006 NOSIG=
202309211100 METAR VABB 211100Z 26012KT 3500 HZ SCT018 SCT025 FEW030CB BKN090 30/26 Q1006 NOSIG=
202309211130 METAR VABB 211130Z 24011KT 3500 HZ SCT018 SCT025 FEW030CB BKN100 29/27 Q1006 NOSIG=
202309211200 METAR VABB 211200Z 24009KT 3500 HZ SCT018 SCT025 FEW030CB BKN100 29/27 Q1006 NOSIG=
202309211230 METAR VABB 211230Z 27007KT 3500 HZ SCT018 SCT025 FEW030CB BKN100 29/28 Q1006 NOSIG=
202309211300 METAR VABB 211300Z 24007KT 3500 HZ SCT018 SCT025 FEW030CB BKN100 29/26 Q1007 BECMG 3000 HZ=
202309211330 METAR VABB 211330Z 24005KT 3000 TS SCT018 SCT025 FEW030CB BKN090 29/26 Q1008 TEMPO 1500 TSRA=
202309211400 METAR VABB 211400Z 28004KT 3000 TS SCT018 SCT025 FEW030CB BKN090 29/26 Q1008 TEMPO 1500 TSRA=
202309211430 METAR VABB 211430Z 24007KT 3000 -TSRA SCT018 SCT025 FEW030CB BKN080 29/26 Q1008 TEMPO 1500 TSRA=
202309211500 METAR VABB 211500Z 24005KT 2200 TSRA FEW010 SCT015 FEW030CB OVC080 28/27 Q1008 TEMPO 1500 TSRA=
202309211530 METAR VABB 211530Z 22004KT 2500 -TSRA FEW012 SCT018 FEW030CB BKN090 28/27 Q1009 TEMPO 1500 TSRA=
202309211600 METAR VABB 211600Z 00000KT 2500 -RA FEW012 SCT018 FEW030CB BKN090 28/27 Q1009 TEMPO 1500 SHRA=
202309211630 METAR VABB 211630Z 16005KT 2500 -DZ FEW012 SCT018 FEW030CB BKN090 28/27 Q1009 TEMPO 1500 SHRA=
202309211700 METAR VABB 211700Z 14006KT 2500 TS FEW012 SCT018 FEW030CB BKN090 27/27 Q1009 TEMPO 1500 TSRA=
202309211730 METAR VABB 211730Z 16006KT 2500 TS SCT018 SCT025 FEW030CB BKN090 27/27 Q1009 TEMPO 1500 TSRA=
202309211800 METAR VABB 211800Z 24007KT 1400 R27/2000 TSRA SCT010 SCT015 FEW030CB OVC080 27/27 Q1009 TEMPO 0800 +TSRA=
202309211830 METAR VABB 211830Z 29008KT 1100 R27/1500 +TSRA SCT008 SCT015 FEW030CB OVC080 27/27 Q1009 TEMPO 0800 +TSRA=
202309211900 METAR VABB 211900Z 23005KT 1800 TSRA SCT010 SCT018 FEW030CB OVC080 27/27 Q1009 TEMPO 1500 TSRA=
202309211930 METAR VABB 211930Z 00000KT 2200 -TSRA FEW012 SCT018 FEW030CB OVC080 26/26 Q1008 TEMPO 1500 TSRA=
202309212000 METAR VABB 212000Z 00000KT 2200 -RA FEW012 SCT018 FEW030CB OVC080 27/27 Q1008 TEMPO 1500 SHRA=
202309212030 METAR VABB 212030Z 13005KT 2200 -RA FEW012 SCT018 FEW030CB OVC080 27/27 Q1008 TEMPO 1500 SHRA=
202309212100 METAR VABB 212100Z 12004KT 2200 -RA FEW012 SCT018 FEW030CB OVC080 27/27 Q1007 TEMPO 1500 SHRA=
202309212130 METAR VABB 212130Z 13006KT 2100 -RA FEW012 SCT018 FEW030CB OVC090 27/27 Q1007 TEMPO 1500 SHRA=
202309212200 METAR VABB 212200Z 00000KT 2100 -RA FEW012 SCT018 FEW030CB OVC090 27/26 Q1007 TEMPO 1500 SHRA=
202309212230 METAR VABB 212230Z 00000KT 2200 -RA FEW012 SCT018 FEW030CB OVC090 26/26 Q1007 TEMPO 1500 SHRA=
202309212300 METAR VABB 212300Z 15004KT 2100 DZ FEW012 SCT018 FEW030CB OVC090 26/25 Q1007 TEMPO 1500 SHRA=
202309212330 METAR VABB 212330Z 14004KT 2100 DZ FEW012 SCT018 FEW030CB OVC090 26/26 Q1007 TEMPO 1500 SHRA=
202309220000 METAR VABB 220000Z 00000KT 2200 -DZ FEW012 SCT018 FEW030CB OVC090 26/26 Q1007 TEMPO 1500 SHRA=
202309220030 METAR VABB 220030Z 20003KT 2500 HZ SCT018 FEW030CB BKN090 26/26 Q1007 NOSIG=
202309220100 METAR VABB 220100Z 00000KT 2200 HZ SCT018 FEW025TCU BKN090 27/26 Q1007 NOSIG=
202309220130 METAR VABB 220130Z 00000KT 2200 HZ SCT018 FEW025TCU BKN090 27/27 Q1008 NOSIG=
202309220200 METAR VABB 220200Z 00000KT 2200 HZ SCT018 FEW025TCU BKN090 27/27 Q1008 TEMPO 1500 SHRA=
202309220230 METAR VABB 220230Z 15003KT 2200 HZ SCT018 FEW025TCU BKN090 26/26 Q1008 TEMPO 1500 SHRA=
202309220300 METAR VABB 220300Z 11004KT 2200 VCSH FEW012 SCT018 FEW025TCU BKN080 27/27 Q1009 TEMPO 1500 SHRA=
202309220330 METAR VABB 220330Z 11005KT 1500 VCSH FEW012 SCT018 FEW025TCU OVC080 27/27 Q1009 TEMPO 0800 SHRA=
202309220400 METAR VABB 220400Z 12004KT 1800 DZ FEW012 SCT018 FEW025TCU OVC080 27/27 Q1009 TEMPO 1500 SHRA=
202309220430 METAR VABB 220430Z 13004KT 1500 -RA FEW012 SCT018 FEW025TCU OVC080 27/27 Q1010 TEMPO 0800 +SHRA=
202309220500 METAR VABB 220500Z 11004KT 1500 DZ FEW012 SCT018 FEW030CB OVC080 27/26 Q1010 TEMPO 0800 +SHRA=
202309220530 METAR VABB 220530Z 10006KT 1500 VCSH FEW012 SCT018 FEW030CB OVC080 27/27 Q1010 TEMPO 0800 +SHRA=
202309220600 METAR VABB 220600Z 11003KT 2200 BR SCT018 FEW030CB OVC080 27/27 Q1009 NOSIG=
202309220630 METAR VABB 220630Z 13003KT 2200 BR SCT018 FEW030CB OVC080 28/27 Q1009 NOSIG=
202309220700 METAR VABB 220700Z 17006KT 2200 BR SCT018 FEW030CB OVC080 28/27 Q1009 NOSIG=
202309220730 METAR VABB 220730Z 17005KT 2200 BR SCT018 FEW030CB OVC080 27/27 Q1008 TEMPO 1500 SHRA=
202309220800 METAR VABB 220800Z 17005KT 1800 BR SCT018 FEW030CB OVC080 27/26 Q1008 TEMPO 1500 SHRA=
202309220830 METAR VABB 220830Z 19004KT 1800 BR SCT010 SCT018 FEW030CB OVC080 26/26 Q1007 TEMPO 1500 SHRA=
202309220900 METAR VABB 220900Z 18006KT 2200 BR SCT012 SCT018 FEW030CB OVC080 27/27 Q1007 TEMPO 1500 SHRA=
202309220930 METAR VABB 220930Z 19003KT 2200 BR SCT012 SCT018 FEW030CB OVC080 27/27 Q1006 TEMPO 1500 SHRA=
202309221000 METAR VABB 221000Z 00000KT 2200 BR SCT012 SCT025 FEW030CB OVC080 27/27 Q1006 NOSIG=
202309221030 METAR VABB 221030Z 17003KT 2200 BR SCT012 SCT025 FEW030CB OVC080 28/27 Q1006 NOSIG=
202309221100 METAR VABB 221100Z 20006KT 2500 BR FEW012 SCT018 FEW030CB BKN090 28/27 Q1006 NOSIG=
202309221130 METAR VABB 221130Z 16005KT 2500 BR FEW012 SCT018 FEW030CB BKN090 28/26 Q1006 NOSIG=
202309221200 METAR VABB 221200Z 15005KT 2500 BR FEW012 SCT018 FEW025TCU BKN090 28/27 Q1007 NOSIG=
202309221230 METAR VABB 221230Z 17004KT 2500 BR FEW012 SCT018 FEW025TCU BKN090 28/27 Q1007 NOSIG=
202309221300 METAR VABB 221300Z 15006KT 2500 BR SCT018 FEW025TCU BKN090 27/26 Q1007 NOSIG=
202309221330 METAR VABB 221330Z 11004KT 2500 BR SCT018 FEW030CB BKN090 28/26 Q1007 TEMPO 1500 SHRA=
202309221400 METAR VABB 221400Z 13003KT 2500 -DZ FEW012 SCT018 FEW030CB BKN090 28/26 Q1008 TEMPO 1500 SHRA=
202309221430 METAR VABB 221430Z 12005KT 2100 -RA SCT012 SCT018 FEW030CB OVC080 28/27 Q1008 TEMPO 1500 SHRA=
202309221500 METAR VABB 221500Z 12004KT 2100 -RA SCT012 SCT018 FEW030CB OVC080 27/27 Q1008 TEMPO 1500 SHRA=
202309221530 METAR VABB 221530Z 00000KT 2100 DZ FEW012 SCT018 FEW030CB BKN090 27/27 Q1009 TEMPO 1500 SHRA=
202309221600 METAR VABB 221600Z 00000KT 2100 DZ FEW012 SCT018 FEW030CB BKN090 27/27 Q1009 TEMPO 1500 SHRA=
202309221630 METAR VABB 221630Z 14004KT 2100 BR FEW012 SCT018 FEW030CB BKN090 27/27 Q1009 TEMPO 1500 SHRA=
202309221700 METAR VABB 221700Z 13003KT 2100 DZ FEW012 SCT018 FEW030CB BKN090 27/27 Q1009 TEMPO 1500 SHRA=
202309221730 METAR VABB 221730Z 00000KT 2100 BR SCT018 FEW030CB BKN090 27/27 Q1009 TEMPO 1500 SHRA=
202309221800 METAR VABB 221800Z 14004KT 2100 BR SCT018 FEW030CB BKN090 27/27 Q1009 NOSIG=
202309221830 METAR VABB 221830Z 14004KT 2100 BR SCT018 FEW030CB BKN090 27/26 Q1009 NOSIG=
202309221900 METAR VABB 221900Z 12006KT 2100 BR SCT018 FEW030CB BKN090 27/26 Q1009 NOSIG=
202309221930 METAR VABB 221930Z 00000KT 2100 BR SCT018 FEW030CB BKN090 27/26 Q1008 NOSIG=
202309222000 METAR VABB 222000Z 00000KT 2100 BR SCT018 FEW030CB BKN090 27/26 Q1008 NOSIG=
202309222030 METAR VABB 222030Z 12003KT 2100 BR SCT018 FEW030CB BKN090 27/26 Q1007 NOSIG=
202309222100 METAR VABB 222100Z 00000KT 2100 BR SCT018 FEW030CB BKN090 27/26 Q1007 NOSIG=
202309222130 METAR VABB 222130Z 00000KT 2100 BR SCT018 FEW030CB BKN090 27/26 Q1007 NOSIG=
202309222200 METAR VABB 222200Z 00000KT 2100 BR SCT018 FEW030CB BKN090 27/26 Q1007 NOSIG=
202309222230 METAR VABB 222230Z 00000KT 2100 BR SCT018 FEW025TCU BKN090 26/26 Q1007 NOSIG=
202309222300 METAR VABB 222300Z 11003KT 2100 BR FEW012 SCT018 FEW025TCU BKN090 27/26 Q1007 NOSIG=
202309222330 METAR VABB 222330Z 10003KT 2100 BR FEW012 SCT018 FEW025TCU BKN090 27/26 Q1007 NOSIG=
202309230000 METAR VABB 230000Z 12004KT 2100 BR FEW012 SCT018 FEW025TCU BKN090 27/26 Q1007 NOSIG=
202309230030 METAR VABB 230030Z 10004KT 2100 BR FEW012 SCT020 FEW025TCU BKN090 27/26 Q1008 NOSIG=
202309230100 METAR VABB 230100Z 12004KT 2500 BR FEW012 SCT020 FEW025TCU BKN090 27/26 Q1008 NOSIG=
202309230130 METAR VABB 230130Z 12005KT 2500 BR FEW012 SCT020 BKN090 27/26 Q1008 NOSIG=
202309230200 METAR VABB 230200Z 12003KT 2500 HZ FEW012 SCT020 BKN090 27/26 Q1009 NOSIG=
202309230230 METAR VABB 230230Z 00000KT 2500 BR SCT018 FEW025TCU BKN100 27/26 Q1009 NOSIG=
202309230300 METAR VABB 230300Z 00000KT 2500 BR SCT018 FEW025TCU BKN100 28/26 Q1009 NOSIG=
202309230330 METAR VABB 230330Z 12004KT 2500 BR SCT018 FEW025TCU BKN090 28/26 Q1010 NOSIG=
202309230400 METAR VABB 230400Z 13004KT 2500 BR FEW012 SCT018 FEW025TCU BKN090 28/26 Q1010 TEMPO 1500 SHRA=
202309230430 METAR VABB 230430Z 16004KT 2500 HZ FEW012 SCT018 FEW025TCU BKN090 29/27 Q1010 TEMPO 1500 SHRA=
202309230500 METAR VABB 230500Z 27010KT 2500 HZ FEW012 SCT018 FEW025TCU BKN090 28/26 Q1010 TEMPO 1500 SHRA=
202309230530 METAR VABB 230530Z 25011KT 2500 HZ FEW012 SCT018 FEW025TCU BKN090 28/26 Q1010 NOSIG=
202309230600 METAR VABB 230600Z 25007KT 2500 VCSH SCT012 SCT018 FEW030CB BKN090 28/26 Q1010 TEMPO 1500 SHRA=
202309230630 METAR VABB 230630Z 28005KT 2500 HZ FEW012 SCT018 FEW030CB BKN090 28/26 Q1010 NOSIG=
202309230700 METAR VABB 230700Z 27010KT 2200 -RA SCT012 SCT018 FEW030CB BKN090 29/26 Q1009 TEMPO 1500 SHRA=
202309230730 METAR VABB 230730Z 30006KT 2500 VCSH SCT012 SCT018 FEW030CB BKN090 28/27 Q1009 TEMPO 1500 SHRA=
202309230800 METAR VABB 230800Z 30008KT 2500 HZ FEW012 SCT018 FEW030CB OVC090 28/26 Q1009 TEMPO 1500 SHRA=
202309230830 METAR VABB 230830Z 29007KT 2500 HZ FEW012 SCT018 FEW030CB OVC090 28/26 Q1008 TEMPO 1500 SHRA=
202309230900 METAR VABB 230900Z 29009KT 2100 -RA SCT012 SCT018 FEW030CB OVC090 28/27 Q1008 TEMPO 1500 SHRA=
202309230930 METAR VABB 230930Z 26006KT 2100 DZ SCT010 SCT018 FEW030CB OVC090 27/26 Q1008 TEMPO 1500 SHRA=
202309231000 METAR VABB 231000Z 24007KT 2100 -RA SCT010 SCT018 FEW030CB OVC090 27/26 Q1008 TEMPO 1500 SHRA=
202309231330 METAR VABB 231330Z 00000KT 1800 -RA FEW010 SCT015 FEW030CB OVC080 26/26 Q1009 TEMPO 1500 SHRA=
202309231430 METAR VABB 231430Z 20003KT 2100 DZ FEW010 SCT015 FEW030CB OVC080 26/26 Q1010 TEMPO 1500 SHRA=
202309231530 METAR VABB 231530Z 14004KT 1800 -RA FEW012 SCT018 FEW030CB OVC080 27/26 Q1010 TEMPO 1500 SHRA=
202309231600 METAR VABB 231600Z 14003KT 1800 -RA SCT012 SCT018 FEW030CB OVC080 27/26 Q1011 TEMPO 1500 SHRA=
202309231630 METAR VABB 231630Z 14004KT 2100 -DZ FEW012 SCT018 FEW030CB OVC080 26/26 Q1011 TEMPO 1500 SHRA=
202309231700 METAR VABB 231700Z 16004KT 2100 DZ FEW012 SCT018 FEW030CB OVC080 26/26 Q1011 TEMPO 1500 SHRA=
202309231730 METAR VABB 231730Z 15004KT 2100 -RA SCT010 SCT018 FEW030CB OVC080 26/26 Q1010 TEMPO 1500 SHRA=
202309231800 METAR VABB 231800Z 00000KT 1800 -RA SCT010 SCT018 FEW030CB OVC080 26/26 Q1010 TEMPO 1500 SHRA=
202309231830 METAR VABB 231830Z 00000KT 2100 -RA SCT010 SCT018 FEW030CB OVC080 26/26 Q1010 TEMPO 1500 SHRA=
202309231900 METAR VABB 231900Z 12004KT 2100 -RA SCT010 SCT018 FEW030CB OVC080 26/26 Q1010 TEMPO 1500 SHRA=
202309231930 METAR VABB 231930Z 12005KT 2100 -DZ SCT012 SCT018 FEW030CB BKN090 26/26 Q1009 TEMPO 1500 SHRA=
202309232000 METAR VABB 232000Z 00000KT 2500 -DZ SCT012 SCT018 FEW030CB BKN090 26/26 Q1009 TEMPO 1500 SHRA=
202309232030 METAR VABB 232030Z 12004KT 2500 BR SCT018 FEW025TCU BKN090 26/26 Q1009 NOSIG=
202309232100 METAR VABB 232100Z 00000KT 2200 BR SCT018 FEW025TCU BKN090 26/26 Q1008 NOSIG=
202309232130 METAR VABB 232130Z 00000KT 2500 BR SCT018 FEW025TCU BKN090 26/26 Q1008 NOSIG=
202309232200 METAR VABB 232200Z 00000KT 2500 BR SCT018 FEW025TCU BKN090 26/26 Q1008 NOSIG=
202309232230 METAR VABB 232230Z 00000KT 2500 BR SCT018 FEW025TCU BKN090 26/26 Q1008 NOSIG=
202309232300 METAR VABB 232300Z 00000KT 2500 -RA SCT018 FEW025TCU BKN090 26/26 Q1008 TEMPO 1500 SHRA=
202309232330 METAR VABB 232330Z 13003KT 2500 BR SCT018 FEW025TCU BKN090 26/26 Q1008 NOSIG=
202309240000 METAR VABB 240000Z 00000KT 2500 BR SCT018 FEW025TCU BKN090 26/26 Q1009 TEMPO 1500 SHRA=
202309240030 METAR VABB 240030Z 00000KT 2200 BR SCT018 FEW025TCU BKN090 26/26 Q1009 NOSIG=
202309240100 METAR VABB 240100Z 00000KT 2200 BR SCT018 FEW025TCU BKN090 26/26 Q1009 TEMPO 1500 BR=
202309240130 METAR VABB 240130Z 00000KT 2200 BR SCT018 FEW025TCU BKN090 26/26 Q1009 NOSIG=
202309240200 METAR VABB 240200Z 11006KT 2200 BR SCT018 FEW025TCU BKN090 26/26 Q1010 NOSIG=
202309240230 METAR VABB 240230Z 10006KT 2200 BR SCT018 FEW025TCU BKN090 26/26 Q1010 NOSIG=
202309240300 METAR VABB 240300Z 11004KT 2500 BR SCT018 FEW025TCU BKN090 27/27 Q1011 NOSIG=
202309240330 METAR VABB 240330Z 12003KT 2500 BR SCT018 FEW025TCU BKN090 27/27 Q1011 NOSIG=
202309240400 METAR VABB 240400Z 13005KT 2500 BR SCT018 FEW025TCU BKN090 28/27 Q1011 TEMPO 1500 SHRA=
202309240430 METAR VABB 240430Z 19003KT 2200 BR FEW012 FEW025TCU BKN090 28/27 Q1011 TEMPO 1500 SHRA=
202309240500 METAR VABB 240500Z 00000KT 2200 BR FEW012 SCT018 FEW025TCU BKN090 29/26 Q1011 TEMPO 1500 SHRA=
202309240530 METAR VABB 240530Z 19007KT 2200 BR FEW012 SCT018 FEW025TCU OVC090 29/26 Q1011 TEMPO 1500 SHRA=
202309240600 METAR VABB 240600Z 22007KT 2500 BR FEW012 SCT018 FEW025TCU BKN090 30/27 Q1011 NOSIG=
202309240630 METAR VABB 240630Z 26008G18KT 2500 VCSH FEW012 SCT018 FEW030CB OVC090 27/27 Q1010 TEMPO 1500 SHRA=
202309240700 METAR VABB 240700Z 27009G19KT 2100 DZ FEW012 SCT018 FEW030CB OVC090 27/26 Q1010 TEMPO 1500 SHRA=
202309240730 METAR VABB 240730Z 26007G17KT 2100 DZ FEW012 SCT018 FEW030CB OVC090 26/26 Q1010 TEMPO 1500 SHRA=
202309240830 METAR VABB 240830Z 27009KT 1500 RA SCT012 SCT018 FEW030CB OVC080 26/26 Q1009 TEMPO 0800 +SHRA=
202309240900 METAR VABB 240900Z 24007KT 1800 -RA FEW012 SCT018 FEW030CB OVC080 26/26 Q1008 TEMPO 0800 +SHRA=
202309240930 METAR VABB 240930Z 24007KT 2500 -DZ FEW012 SCT018 FEW030CB BKN090 26/26 Q1008 TEMPO 1500 SHRA=
202309241000 METAR VABB 241000Z 26006KT 2500 BR FEW012 SCT018 FEW030CB BKN090 27/26 Q1008 NOSIG=
202309241030 METAR VABB 241030Z 23006KT 2500 BR FEW012 SCT018 FEW025TCU BKN090 27/26 Q1007 NOSIG=
202309241100 METAR VABB 241100Z 25006KT 2500 BR FEW012 SCT018 FEW025TCU BKN090 27/26 Q1007 NOSIG=
202309241130 METAR VABB 241130Z 23004KT 2500 BR SCT012 SCT018 FEW025TCU OVC080 27/26 Q1008 TEMPO 1500 SHRA=
202309241200 METAR VABB 241200Z 23006KT 2500 BR FEW012 SCT018 FEW025TCU OVC080 27/26 Q1008 TEMPO 1500 SHRA=
202309241230 METAR VABB 241230Z 24006KT 2500 BR FEW012 SCT018 FEW030CB OVC080 27/26 Q1008 TEMPO 1500 SHRA=
202309241300 METAR VABB 241300Z 22006KT 2500 BR FEW012 SCT018 FEW030CB OVC080 27/26 Q1008 TEMPO 1500 SHRA=
202309241330 METAR VABB 241330Z 18004KT 2500 BR FEW012 SCT018 FEW030CB OVC080 27/26 Q1008 NOSIG=
202309241400 METAR VABB 241400Z 18003KT 2500 BR FEW012 SCT018 FEW030CB BKN090 27/26 Q1008 NOSIG=
202309241430 METAR VABB 241430Z 21004KT 2500 DZ FEW012 SCT018 FEW030CB OVC080 27/26 Q1009 TEMPO 1500 SHRA=
202309241500 METAR VABB 241500Z 16001KT 2500 DZ FEW012 SCT018 FEW030CB BKN090 27/26 Q1009 TEMPO 1500 SHRA=
202309241530 METAR VABB 241530Z 13001KT 2500 HZ FEW012 SCT018 FEW030CB BKN090 27/26 Q1009 NOSIG=
202309241600 METAR VABB 241600Z 00000KT 2500 HZ FEW012 SCT018 FEW025TCU BKN090 27/26 Q1010 NOSIG=
202309241630 METAR VABB 241630Z 00000KT 2500 BR FEW012 SCT018 FEW025TCU BKN090 27/26 Q1010 NOSIG=
202309241700 METAR VABB 241700Z 14003KT 2500 BR FEW012 SCT018 FEW025TCU BKN090 27/26 Q1010 NOSIG=
202309241730 METAR VABB 241730Z 00000KT 2500 BR FEW012 SCT018 FEW025TCU BKN090 27/26 Q1009 NOSIG=
202309241800 METAR VABB 241800Z 00000KT 2500 BR FEW012 SCT018 FEW025TCU BKN090 27/26 Q1009 NOSIG=
202309241830 METAR VABB 241830Z 00000KT 2500 BR FEW012 SCT018 FEW025TCU BKN090 27/26 Q1009 NOSIG=
202309241900 METAR VABB 241900Z 00000KT 2500 BR FEW012 SCT018 FEW025TCU BKN090 27/26 Q1009 NOSIG=
202309241930 METAR VABB 241930Z 12003KT 2500 BR FEW012 SCT018 FEW025TCU BKN090 27/26 Q1008 NOSIG=
202309242000 METAR VABB 242000Z 00000KT 2500 BR FEW012 SCT018 FEW025TCU BKN090 27/26 Q1008 NOSIG=
202309242030 METAR VABB 242030Z 00000KT 2500 BR FEW012 SCT018 FEW025TCU BKN090 26/26 Q1008 NOSIG=
202309242100 METAR VABB 242100Z 00000KT 2500 BR FEW012 SCT018 FEW025TCU BKN090 26/26 Q1007 TEMPO 1500 SHRA=
202309242130 METAR VABB 242130Z 00000KT 2500 BR FEW012 SCT018 FEW025TCU BKN090 26/26 Q1007 NOSIG=
202309242200 METAR VABB 242200Z 00000KT 2500 BR FEW012 SCT018 FEW025TCU BKN090 26/26 Q1007 NOSIG=
202309242230 METAR VABB 242230Z 00000KT 2500 BR FEW012 SCT018 FEW025TCU BKN090 26/26 Q1007 NOSIG=
202309242300 METAR VABB 242300Z 11003KT 2500 BR SCT018 FEW025TCU BKN090 26/26 Q1007 NOSIG=
202309242330 METAR VABB 242330Z 00000KT 2500 BR SCT018 FEW025TCU BKN090 26/26 Q1007 TEMPO 1500 SHRA=
202309250000 METAR VABB 250000Z 00000KT 2500 BR SCT018 FEW025TCU BKN090 26/26 Q1008 NOSIG=
202309250030 METAR VABB 250030Z 10004KT 2500 BR SCT018 SCT025 FEW030CB BKN090 26/26 Q1008 NOSIG=
202309250100 METAR VABB 250100Z 00000KT 2200 BR SCT018 SCT025 FEW030CB BKN090 26/26 Q1008 NOSIG=
202309250130 METAR VABB 250130Z 00000KT 2200 BR FEW018 SCT025 FEW030CB BKN090 26/26 Q1008 NOSIG=
202309250200 METAR VABB 250200Z 00000KT 2500 BR FEW018 SCT025 FEW030CB BKN090 27/26 Q1008 NOSIG=
202309250230 METAR VABB 250230Z 10003KT 2500 BR FEW018 SCT025 FEW030CB BKN090 27/26 Q1009 NOSIG=
202309250300 METAR VABB 250300Z 00000KT 2500 BR SCT018 FEW030CB BKN090 27/26 Q1009 NOSIG=
202309250330 METAR VABB 250330Z 16004KT 2500 BR SCT018 FEW030CB BKN090 28/26 Q1009 NOSIG=
202309250400 METAR VABB 250400Z 21007KT 2500 BR SCT018 SCT025 FEW030CB BKN100 29/26 Q1010 NOSIG=
202309250430 METAR VABB 250430Z 21008G18KT 3000 HZ SCT018 SCT025 FEW030CB BKN100 29/26 Q1010 TEMPO 2000 -SHRA=
202309250500 METAR VABB 250500Z 19008G18KT 3000 VCSH SCT018 SCT025 FEW030CB BKN100 29/26 Q1010 NOSIG=
202309250530 METAR VABB 250530Z 19008G18KT 3000 HZ FEW018 SCT025 FEW030CB BKN100 30/27 Q1009 NOSIG=
202309250600 METAR VABB 250600Z 22007KT 3000 HZ FEW018 SCT025 FEW030CB BKN100 29/26 Q1009 NOSIG=
202309250630 METAR VABB 250630Z 25011KT 3000 HZ FEW018 SCT025 FEW030CB BKN100 30/27 Q1009 NOSIG=
202309250700 METAR VABB 250700Z 26010KT 3000 HZ SCT018 SCT025 FEW030CB BKN100 29/26 Q1008 NOSIG=
202309250730 METAR VABB 250730Z 26010KT 3500 HZ SCT018 SCT025 FEW030CB BKN100 30/26 Q1008 NOSIG=
202309250800 METAR VABB 250800Z 27012KT 4000 HZ FEW020 SCT025 FEW030CB 30/26 Q1007 NOSIG=
202309250830 METAR VABB 250830Z 24008KT 4000 HZ FEW020 SCT025 FEW030CB 29/25 Q1007 NOSIG=
202309250900 METAR VABB 250900Z 23007KT 4000 HZ FEW020 SCT025 FEW030CB BKN100 29/25 Q1007 NOSIG=
202309250930 METAR VABB 250930Z 26009KT 4500 HZ SCT025 FEW030CB 29/25 Q1006 NOSIG=
202309251000 METAR VABB 251000Z 28009KT 4500 HZ SCT018 FEW030CB 29/26 Q1006 NOSIG=
202309251030 METAR VABB 251030Z 26010KT 5000 HZ FEW018 SCT025 FEW030CB 30/26 Q1006 NOSIG=
202309251100 METAR VABB 251100Z 30008KT 5000 HZ FEW018 SCT025 FEW025TCU 29/26 Q1006 NOSIG=
202309251130 METAR VABB 251130Z 28011KT 5000 HZ FEW018 SCT025 FEW025TCU 29/26 Q1006 NOSIG=
202309251200 METAR VABB 251200Z 26011KT 5000 HZ FEW018 SCT025 FEW025TCU 29/26 Q1006 NOSIG=
202309251230 METAR VABB 251230Z 27009KT 4000 HZ SCT018 FEW025TCU 28/26 Q1007 NOSIG=
202309251300 METAR VABB 251300Z 27010KT 4000 HZ SCT018 FEW030CB 28/26 Q1007 NOSIG=
202309251330 METAR VABB 251330Z 28009KT 4000 HZ SCT018 FEW030CB 28/26 Q1007 TEMPO 3000 HZ=
202309251400 METAR VABB 251400Z 28011KT 3000 HZ SCT018 FEW030CB 28/26 Q1007 NOSIG=
202309251430 METAR VABB 251430Z 26008KT 3000 HZ SCT018 FEW030CB 28/26 Q1007 NOSIG=
202309251500 METAR VABB 251500Z 28009KT 3000 HZ SCT018 FEW030CB 28/27 Q1008 NOSIG=
202309251530 METAR VABB 251530Z 29007KT 3000 HZ SCT018 FEW030CB 28/25 Q1008 NOSIG=
202309251700 METAR VABB 251700Z 29006KT 3000 -RA SCT018 SCT025 FEW030CB 29/27 Q1009 TEMPO 1500 SHRA=
202309251730 METAR VABB 251730Z 34005KT 3000 -DZ SCT018 SCT025 FEW030CB 28/27 Q1008 TEMPO 1500 SHRA=
202309251800 METAR VABB 251800Z 33004KT 3000 BR SCT018 SCT025 FEW030CB 28/27 Q1008 NOSIG=
202309251830 METAR VABB 251830Z 33004KT 3000 BR SCT018 SCT025 FEW030CB 28/27 Q1008 NOSIG=
202309251900 METAR VABB 251900Z 33004KT 3000 BR SCT018 SCT025 FEW030CB 28/27 Q1008 NOSIG=
202309251930 METAR VABB 251930Z 01003KT 3000 BR SCT018 SCT025 FEW030CB 28/27 Q1008 NOSIG=
202309252000 METAR VABB 252000Z 05003KT 3000 BR SCT018 SCT025 FEW030CB 28/27 Q1007 NOSIG=
202309252030 METAR VABB 252030Z 01003KT 3000 BR SCT018 SCT025 FEW030CB 27/26 Q1007 NOSIG=
202309252100 METAR VABB 252100Z 02004KT 3000 BR SCT018 SCT025 FEW030CB 28/27 Q1007 NOSIG=
202309252130 METAR VABB 252130Z 04004KT 3000 BR SCT018 SCT025 FEW030CB 28/27 Q1007 NOSIG=
202309252200 METAR VABB 252200Z 00000KT 3000 BR SCT018 SCT025 FEW030CB 28/27 Q1006 NOSIG=
202309252230 METAR VABB 252230Z 00000KT 3000 BR SCT018 SCT025 FEW030CB 28/27 Q1006 NOSIG=
202309252300 METAR VABB 252300Z 14004KT 2500 BR SCT018 SCT025 FEW030CB 28/27 Q1007 TEMPO 1500 SHRA=
202309252330 METAR VABB 252330Z 12004KT 2500 VCSH SCT018 SCT025 FEW030CB 27/26 Q1006 TEMPO 1500 SHRA=
202309260000 METAR VABB 260000Z 14004KT 2500 BR SCT018 SCT025 FEW030CB 27/26 Q1007 NOSIG=
202309260030 METAR VABB 260030Z 17004KT 2500 BR SCT018 SCT025 FEW030CB 27/26 Q1007 NOSIG=
202309260100 METAR VABB 260100Z 17003KT 2500 BR SCT018 SCT025 FEW030CB 27/26 Q1007 NOSIG=
202309260130 METAR VABB 260130Z 18004KT 2500 BR SCT018 SCT025 FEW030CB 27/26 Q1007 NOSIG=
202309260200 METAR VABB 260200Z 10005KT 2200 BR SCT018 FEW025TCU 28/27 Q1008 NOSIG=
202309260230 METAR VABB 260230Z 12006KT 1600 BR SCT018 FEW025TCU SCT100 28/27 Q1008 NOSIG=
202309260300 METAR VABB 260300Z 10005KT 2100 BR SCT018 FEW025TCU SCT100 28/27 Q1009 NOSIG=
202309260330 METAR VABB 260330Z 08004KT 2100 BR SCT018 FEW025TCU SCT100 29/27 Q1009 NOSIG=
202309260400 METAR VABB 260400Z 10004KT 2100 HZ SCT018 FEW025TCU BKN090 29/27 Q1009 NOSIG=
202309260430 METAR VABB 260430Z 11005KT 2500 HZ SCT018 FEW025TCU BKN090 30/27 Q1009 NOSIG=
202309260500 METAR VABB 260500Z 15003KT 2500 HZ SCT018 FEW025TCU BKN090 31/27 Q1009 NOSIG=
202309260530 METAR VABB 260530Z 26007KT 2200 DZ SCT018 FEW025TCU BKN090 39/27 Q1009 TEMPO 1500 SHRA=
202309260600 METAR VABB 260600Z 25007KT 2200 VCSH SCT018 FEW025TCU BKN090 29/27 Q1008 NOSIG=
202309260630 METAR VABB 260630Z 25008KT 2200 -RA SCT015 FEW025TCU BKN090 29/27 Q1008 TEMPO 1500 SHRA=
202309260700 METAR VABB 260700Z 24008KT 2500 VCSH SCT018 FEW025TCU BKN090 29/27 Q1008 NOSIG=
202309260730 METAR VABB 260730Z 32006KT 1500 RA FEW012 SCT015 FEW025TCU BKN090 29/27 Q1008 TEMPO 0800 +SHRA=
202309260800 METAR VABB 260800Z 25006KT 2500 HZ SCT015 FEW025TCU BKN090 29/27 Q1007 TEMPO 1500 SHRA=
202309260830 METAR VABB 260830Z 27007KT 3000 HZ SCT018 SCT025 BKN090 30/27 Q1007 NOSIG=
202309260900 METAR VABB 260900Z 29009KT 3500 HZ SCT018 SCT025 BKN090 31/27 Q1006 NOSIG=
202309260930 METAR VABB 260930Z 25006KT 3500 HZ SCT018 SCT025 BKN090 31/26 Q1006 NOSIG=
202309261000 METAR VABB 261000Z 27011KT 3500 HZ SCT018 SCT025 BKN090 31/27 Q1005 NOSIG=
202309261030 METAR VABB 261030Z 26011KT 3500 HZ SCT018 SCT025 BKN090 31/27 Q1005 NOSIG=
202309261100 METAR VABB 261100Z 27012KT 3500 HZ SCT018 SCT025 BKN090 31/27 Q1005 NOSIG=
202309261130 METAR VABB 261130Z 28013KT 4000 HZ SCT018 FEW025TCU BKN090 31/26 Q1005 NOSIG=
202309261200 METAR VABB 261200Z 28009KT 3500 HZ SCT018 FEW025TCU BKN090 30/27 Q1005 NOSIG=
202309261230 METAR VABB 261230Z 29008KT 3500 HZ SCT018 FEW025TCU BKN090 30/27 Q1006 BECMG 3000 HZ=
202309261300 METAR VABB 261300Z 29008KT 3000 HZ SCT018 FEW030CB BKN090 30/27 Q1006 NOSIG=
202309261330 METAR VABB 261330Z 31006KT 3000 HZ SCT018 FEW030CB BKN090 30/27 Q1007 NOSIG=
202309261400 METAR VABB 261400Z 33005KT 2500 TS FEW012 SCT018 FEW030CB BKN090 30/27 Q1008 TEMPO 1500 TSRA=
202309261430 METAR VABB 261430Z 31009KT 2500 -TSRA FEW012 SCT018 FEW030CB BKN090 30/27 Q1008 TEMPO 1500 TSRA=
202309261500 METAR VABB 261500Z 23005KT 2500 -DZ FEW012 SCT018 FEW030CB BKN090 28/25 Q1008 TEMPO 1500 TSRA=
202309261530 METAR VABB 261530Z 06003KT 2500 -DZ FEW012 SCT018 FEW030CB BKN090 28/28 Q1009 TEMPO 1500 TSRA=
202309261600 METAR VABB 261600Z 04006KT 2100 -TSRA FEW012 SCT018 FEW030CB OVC080 29/27 Q1009 TEMPO 1500 TSRA=
202309261630 METAR VABB 261630Z 06008KT 2100 -TSRA FEW012 SCT018 FEW030CB OVC080 28/26 Q1009 TEMPO 1500 TSRA=
202309261700 METAR VABB 261700Z 09006KT 2200 TS FEW012 SCT018 FEW030CB OVC080 27/26 Q1009 TEMPO 1500 TSRA=
202309261730 METAR VABB 261730Z 12003KT 2200 TS FEW012 SCT018 FEW030CB OVC080 27/26 Q1009 TEMPO 1500 TSRA=
202309261800 METAR VABB 261800Z 12004KT 2200 -TSRA FEW012 SCT018 FEW030CB OVC080 26/26 Q1009 TEMPO 1500 TSRA=
202309261830 METAR VABB 261830Z 11004KT 2100 -RA FEW012 SCT018 FEW030CB OVC080 26/26 Q1009 TEMPO 1500 TSRA=
202309261900 METAR VABB 261900Z 13004KT 2100 -RA FEW012 SCT018 FEW030CB OVC080 26/26 Q1009 TEMPO 1500 TSRA=
202309261930 METAR VABB 261930Z 15004KT 2500 -DZ FEW012 SCT018 FEW030CB OVC080 26/26 Q1008 TEMPO 1500 SHRA=
202309262000 METAR VABB 262000Z 12005KT 2500 -DZ FEW012 SCT018 FEW025TCU BKN090 26/26 Q1008 TEMPO 1500 SHRA=
202309262030 METAR VABB 262030Z 16005KT 2500 BR FEW012 SCT018 FEW025TCU BKN090 26/26 Q1007 TEMPO 1500 SHRA=
202309262100 METAR VABB 262100Z 13005KT 2500 BR FEW012 SCT018 FEW030CB BKN090 26/26 Q1007 TEMPO 1500 SHRA=
202309262130 METAR VABB 262130Z 07003KT 2500 BR FEW012 SCT018 FEW030CB BKN090 26/26 Q1007 TEMPO 1500 SHRA=
202309262200 METAR VABB 262200Z 00000KT 2500 BR FEW012 SCT018 FEW030CB BKN090 26/26 Q1007 NOSIG=
202309262230 METAR VABB 262230Z 00000KT 2500 BR FEW012 SCT018 FEW025TCU BKN090 26/26 Q1007 NOSIG=
202309262300 METAR VABB 262300Z 14005KT 2500 BR FEW012 SCT018 FEW025TCU BKN090 26/26 Q1007 NOSIG=
202309262330 METAR VABB 262330Z 00000KT 2500 BR FEW012 SCT018 FEW025TCU BKN090 26/26 Q1007 NOSIG=
202309270000 METAR VABB 270000Z 12003KT 2500 BR SCT018 FEW025TCU BKN090 26/26 Q1007 NOSIG=
202309270030 METAR VABB 270030Z 09003KT 2500 BR SCT018 FEW025TCU BKN090 26/26 Q1007 NOSIG=
202309270100 METAR VABB 270100Z 09004KT 2100 BR SCT018 FEW025TCU BKN090 26/26 Q1007 NOSIG=
202309270130 METAR VABB 270130Z 12003KT 1800 BR SCT018 FEW025TCU BKN090 26/26 Q1007 NOSIG=
202309270200 METAR VABB 270200Z 13004KT 1600 BR SCT018 FEW025TCU BKN090 26/26 Q1007 NOSIG=
202309270230 METAR VABB 270230Z 13004KT 1600 BR SCT018 FEW025TCU BKN090 27/26 Q1008 NOSIG=
202309270300 METAR VABB 270300Z 11005KT 1800 BR SCT018 FEW025TCU BKN090 27/26 Q1008 NOSIG=
202309270330 METAR VABB 270330Z 15004KT 1800 BR SCT018 FEW025TCU BKN090 27/26 Q1009 NOSIG=
202309270400 METAR VABB 270400Z 13004KT 2100 BR SCT018 SCT025 BKN090 28/26 Q1009 NOSIG=
202309270430 METAR VABB 270430Z 15005KT 2100 BR SCT018 SCT025 BKN090 28/26 Q1009 NOSIG=
202309270500 METAR VABB 270500Z 17004KT 2200 BR SCT018 SCT025 BKN090 29/27 Q1008 NOSIG=
202309270530 METAR VABB 270530Z 17004KT 2500 BR SCT018 SCT025 BKN100 29/27 Q1008 NOSIG=
202309270600 METAR VABB 270600Z 00000KT 2500 BR SCT018 SCT025 BKN100 30/27 Q1008 NOSIG=
202309270630 METAR VABB 270630Z 30005KT 2500 BR SCT018 SCT025 BKN100 30/27 Q1008 NOSIG=
202309270700 METAR VABB 270700Z 30008KT 2500 BR SCT018 SCT025 BKN100 30/27 Q1007 NOSIG=
202309270730 METAR VABB 270730Z 27007KT 2500 BR SCT018 SCT025 BKN100 29/27 Q1007 NOSIG=
202309270800 METAR VABB 270800Z 31006KT 2500 BR SCT018 FEW030CB BKN090 30/27 Q1006 TEMPO 1500 SHRA=
202309270830 METAR VABB 270830Z 28006KT 2500 BR SCT018 FEW030CB BKN090 30/26 Q1006 TEMPO 1500 SHRA=
202309270900 METAR VABB 270900Z 28009KT 2100 BR SCT018 FEW030CB BKN090 30/27 Q1005 TEMPO 1500 SHRA=
202309270930 METAR VABB 270930Z 26006KT 2100 BR SCT018 FEW030CB BKN090 30/27 Q1005 NOSIG=
202309271000 METAR VABB 271000Z 28009KT 2100 BR SCT018 FEW030CB BKN090 30/27 Q1005 TEMPO 1500 SHRA=
202309271030 METAR VABB 271030Z 29008KT 2100 BR SCT018 FEW030CB BKN090 30/27 Q1005 TEMPO 1500 SHRA=
202309271100 METAR VABB 271100Z 03008G18KT 0700 R27/0800 +TSRA SCT010 SCT015 FEW030CB OVC080 25/25 Q1006 TEMPO 0600 +TSRA=
202309271130 METAR VABB 271130Z 02007G17KT 1500 TSRA SCT010 SCT015 FEW030CB OVC080 24/24 Q1006 TEMPO 0800 +TSRA=
202309271200 METAR VABB 271200Z 11005KT 1500 TSRA SCT010 SCT015 FEW030CB OVC080 25/24 Q1006 TEMPO 0800 +TSRA=
202309271230 METAR VABB 271230Z 08004KT 1500 TSRA SCT010 SCT015 FEW030CB OVC080 26/24 Q1006 TEMPO 0800 +TSRA=
202309271300 METAR VABB 271300Z 10005KT 1800 TSRA SCT010 SCT015 FEW030CB OVC080 26/25 Q1006 TEMPO 0800 +TSRA=
202309271330 METAR VABB 271330Z 14005KT 1800 TSRA SCT010 SCT015 FEW030CB OVC080 26/25 Q1006 TEMPO 0800 +TSRA=
202309271400 METAR VABB 271400Z 06004KT 2100 -RA FEW010 SCT015 FEW030CB OVC080 26/25 Q1006 TEMPO 1500 SHRA=
202309271430 METAR VABB 271430Z 08005KT 2100 -RA FEW010 SCT018 FEW030CB OVC080 26/25 Q1007 TEMPO 1500 SHRA=
202309271500 METAR VABB 271500Z 12004KT 2100 -RA FEW010 SCT018 FEW030CB OVC080 26/25 Q1007 TEMPO 1500 SHRA=
202309271530 METAR VABB 271530Z 14004KT 2100 -RA FEW010 SCT018 FEW030CB OVC080 26/26 Q1007 TEMPO 1500 SHRA=
202309271600 METAR VABB 271600Z 07003KT 2200 DZ FEW010 SCT018 FEW030CB OVC080 26/26 Q1008 NOSIG=
202309271630 METAR VABB 271630Z 09006KT 2200 BR FEW010 SCT018 FEW030CB OVC080 27/26 Q1008 NOSIG=
202309271700 METAR VABB 271700Z 09006KT 2200 BR FEW010 SCT018 FEW030CB OVC080 26/26 Q1008 NOSIG=
202309271730 METAR VABB 271730Z 08006KT 2200 BR FEW010 SCT018 FEW030CB OVC080 26/25 Q1008 NOSIG=
202309271800 METAR VABB 271800Z 03006KT 2200 BR FEW010 SCT018 FEW030CB OVC080 27/25 Q1007 NOSIG=
202309271830 METAR VABB 271830Z 00000KT 2500 BR FEW010 SCT018 FEW030CB OVC080 26/25 Q1007 NOSIG=
202309271900 METAR VABB 271900Z 14003KT 2500 BR FEW010 SCT018 FEW030CB OVC080 27/25 Q1007 NOSIG=
202309271930 METAR VABB 271930Z 00000KT 2500 BR FEW012 SCT018 FEW030CB OVC090 27/25 Q1006 NOSIG=
202309272000 METAR VABB 272000Z 00000KT 2500 BR FEW012 SCT018 FEW030CB OVC090 27/25 Q1006 NOSIG=
202309272030 METAR VABB 272030Z 00000KT 2500 BR FEW012 SCT018 FEW030CB OVC090 27/26 Q1005 NOSIG=
202309272100 METAR VABB 272100Z 00000KT 2500 BR FEW012 SCT018 FEW030CB OVC090 27/25 Q1005 NOSIG=
202309272130 METAR VABB 272130Z 00000KT 2500 BR FEW012 SCT018 FEW030CB OVC090 27/26 Q1005 NOSIG=
202309272200 METAR VABB 272200Z VRB02KT 2500 BR SCT018 FEW025TCU BKN090 27/26 Q1005 NOSIG=
202309272230 METAR VABB 272230Z 00000KT 2500 BR SCT018 FEW025TCU BKN090 27/26 Q1005 NOSIG=
202309272300 METAR VABB 272300Z 00000KT 2500 BR SCT018 FEW025TCU BKN090 27/26 Q1005 NOSIG=
202309272330 METAR VABB 272330Z VRB02KT 2500 BR SCT018 FEW025TCU BKN090 26/26 Q1005 NOSIG=
202309280000 METAR VABB 280000Z VRB02KT 2500 BR SCT018 FEW025TCU BKN090 26/26 Q1005 NOSIG=
202309280030 METAR VABB 280030Z 00000KT 2500 BR SCT018 FEW025TCU OVC080 26/26 Q1006 NOSIG=
202309280100 METAR VABB 280100Z 00000KT 2000 BR SCT018 FEW025TCU OVC080 26/26 Q1006 TEMPO 1500 BR=
202309280130 METAR VABB 280130Z VRB02KT 2000 BR SCT018 FEW025TCU OVC080 26/26 Q1006 NOSIG=
202309280200 METAR VABB 280200Z 11003KT 1800 BR SCT018 BKN090 27/26 Q1007 NOSIG=
202309280230 METAR VABB 280230Z 15003KT 1800 BR SCT018 BKN090 27/27 Q1007 NOSIG=
202309280300 METAR VABB 280300Z 02003KT 1800 BR SCT018 BKN090 28/27 Q1007 NOSIG=
202309280330 METAR VABB 280330Z 16004KT 2100 BR SCT018 BKN090 29/27 Q1008 NOSIG=
202309280400 METAR VABB 280400Z 16005KT 2100 BR SCT018 FEW025TCU BKN090 29/27 Q1008 NOSIG=
202309280430 METAR VABB 280430Z 05006KT 2100 HZ SCT020 FEW025TCU BKN100 31/27 Q1008 NOSIG=
202309280500 METAR VABB 280500Z 02004KT 2100 HZ SCT020 FEW025TCU SCT100 31/28 Q1007 NOSIG=
202309280530 METAR VABB 280530Z 03009KT 2100 HZ SCT020 FEW025TCU SCT100 32/27 Q1007 NOSIG=
202309280600 METAR VABB 280600Z 03009KT 2100 HZ SCT020 FEW025TCU SCT090 32/27 Q1007 NOSIG=
202309280630 METAR VABB 280630Z 07005KT 2500 HZ SCT020 FEW025TCU SCT090 32/27 Q1007 NOSIG=
202309280700 METAR VABB 280700Z 01007KT 2500 HZ SCT020 FEW025TCU SCT100 33/27 Q1006 NOSIG=
202309280730 METAR VABB 280730Z 01005KT 2500 HZ SCT020 FEW025TCU SCT100 34/27 Q1005 NOSIG=
202309280800 METAR VABB 280800Z 30008KT 2500 HZ SCT020 FEW025TCU BKN100 33/28 Q1005 NOSIG=
202309280830 METAR VABB 280830Z 27008KT 2500 HZ SCT020 FEW025TCU BKN100 32/27 Q1004 NOSIG=
202309280900 METAR VABB 280900Z 27010KT 2500 TSRA SCT028 FEW030TCU BKN090 32/28 Q1004 TEMPO 1500 TSRA=
202309280930 METAR VABB 280930Z 30011KT 2500 VCSH SCT018 FEW030CB BKN090 31/28 Q1004 TEMPO 1500 SHRA=
202309281000 METAR VABB 281000Z 24012G22KT 0400 R27/0500 +TSRA FEW008 SCT015 FEW030CB BKN090 29/29 Q1004 TEMPO 0150 +TSRA=
202309281030 METAR VABB 281030Z 34011KT 2100 -TSRA FEW008 SCT015 FEW030CB OVC090 25/24 Q1004 TEMPO 1500 -TSRA=
202309281100 METAR VABB 281100Z 27004KT 2500 HZ FEW012 SCT018 FEW030CB BKN090 26/26 Q1003 TEMPO 1500 SHRA=
202309281130 METAR VABB 281130Z 36004KT 2500 HZ FEW012 SCT018 FEW030CB OVC090 28/26 Q1003 TEMPO 1500 SHRA=
202309281200 METAR VABB 281200Z 00000KT 2500 VCSH FEW012 SCT015 FEW030CB OVC090 28/26 Q1004 TEMPO 1500 SHRA=
202309281230 METAR VABB 281230Z 08004KT 2100 VCSH SCT015 FEW030CB OVC090 28/26 Q1004 TEMPO 1500 SHRA=
202309281300 METAR VABB 281300Z 07009KT 2100 VCSH FEW010 SCT015 FEW030CB OVC090 28/26 Q1005 TEMPO 1500 SHRA=
202309281330 METAR VABB 281330Z 05004KT 2100 VCSH FEW012 SCT015 FEW030CB OVC090 28/27 Q1005 TEMPO 1500 SHRA=
202309281400 METAR VABB 281400Z 08005KT 2500 BR SCT018 FEW030CB OVC090 28/27 Q1005 TEMPO 1500 SHRA=
202309281430 METAR VABB 281430Z 33004KT 2500 BR SCT018 FEW030CB OVC090 28/27 Q1005 NOSIG=
202309281500 METAR VABB 281500Z 03004KT 2500 BR SCT018 FEW030CB BKN090 28/27 Q1005 NOSIG=
202309281530 METAR VABB 281530Z 03006KT 2500 BR SCT018 FEW030CB BKN090 28/26 Q1006 NOSIG=
202309281600 METAR VABB 281600Z 03003KT 2500 BR SCT018 FEW030CB BKN090 28/25 Q1006 NOSIG=
202309281630 METAR VABB 281630Z 04005KT 2500 TS SCT018 FEW030CB BKN090 27/25 Q1006 TEMPO 1500 TSRA=
202309281700 METAR VABB 281700Z 04004KT 1400 R09/1500 TSRA FEW010 SCT018 FEW030CB BKN090 26/25 Q1006 TEMPO 0800 +TSRA=
202309281730 METAR VABB 281730Z 03005KT 1400 R09/1500 TSRA FEW010 SCT018 FEW030CB BKN090 26/26 Q1006 TEMPO 0800 +TSRA=
202309281800 METAR VABB 281800Z 00000KT 2100 -TSRA FEW010 SCT018 FEW030CB BKN090 26/26 Q1005 TEMPO 1500 TSRA=
202309281830 METAR VABB 281830Z 00000KT 2100 -TSRA FEW010 SCT018 FEW030CB BKN090 26/26 Q1005 TEMPO 1500 TSRA=
202309281900 METAR VABB 281900Z 00000KT 2500 TS SCT018 FEW030CB BKN090 27/26 Q1005 TEMPO 1500 TSRA=
202309281930 METAR VABB 281930Z 00000KT 2500 BR SCT018 FEW030CB BKN090 27/26 Q1005 NOSIG=
202309282000 METAR VABB 282000Z 17004KT 2500 BR SCT018 FEW030CB BKN090 27/26 Q1004 NOSIG=
202309282030 METAR VABB 282030Z 12006KT 2100 -RA SCT018 FEW030CB BKN090 27/26 Q1004 TEMPO 1500 SHRA=
202309282100 METAR VABB 282100Z 05003KT 2100 DZ SCT018 FEW030CB BKN090 27/26 Q1004 TEMPO 1500 SHRA=
202309282130 METAR VABB 282130Z 08004KT 2100 BR SCT018 FEW030CB BKN090 27/26 Q1004 NOSIG=
202309282200 METAR VABB 282200Z 00000KT 2100 BR SCT018 FEW030CB BKN090 27/26 Q1004 TEMPO 1500 SHRA=
202309282230 METAR VABB 282230Z 00000KT 2100 BR SCT018 FEW030CB BKN090 27/26 Q1004 TEMPO 1500 SHRA=
202309282300 METAR VABB 282300Z 00000KT 2100 BR SCT018 FEW030CB BKN090 27/26 Q1004 NOSIG=
202309282330 METAR VABB 282330Z 32004KT 2100 BR SCT018 FEW030CB BKN090 27/26 Q1004 NOSIG=
202309290000 METAR VABB 290000Z 00000KT 2100 BR SCT018 FEW030CB BKN090 27/26 Q1005 NOSIG=
202309290030 METAR VABB 290030Z 06004KT 2100 BR SCT018 FEW030CB BKN090 28/26 Q1005 TEMPO 1500 SHRA=
202309290100 METAR VABB 290100Z 00000KT 2100 VCSH SCT018 FEW030CB BKN090 27/26 Q1005 TEMPO 1500 SHRA=
202309290130 METAR VABB 290130Z 09004KT 2100 VCSH FEW010 SCT018 FEW030CB BKN090 27/26 Q1005 TEMPO 1500 SHRA=
202309290200 METAR VABB 290200Z 17004KT 2100 VCSH FEW010 SCT018 FEW030CB BKN090 27/26 Q1006 TEMPO 1500 SHRA=
202309290230 METAR VABB 290230Z 08003KT 2100 BR SCT018 FEW025TCU BKN100 28/27 Q1006 NOSIG=
202309290300 METAR VABB 290300Z 00000KT 2100 BR SCT018 FEW025TCU BKN100 29/27 Q1006 NOSIG=
202309290330 METAR VABB 290330Z 05004KT 2100 BR SCT018 FEW025TCU BKN100 30/27 Q1007 NOSIG=
202309290400 METAR VABB 290400Z 06005KT 2500 HZ SCT020 FEW030CB BKN100 30/27 Q1007 NOSIG=
202309290430 METAR VABB 290430Z 07006KT 2500 HZ SCT020 FEW030CB BKN100 32/27 Q1007 BECMG 3000 HZ=
202309290500 METAR VABB 290500Z 06003KT 2500 HZ SCT020 FEW030CB BKN100 32/27 Q1007=
202309290530 METAR VABB 290530Z 09006KT 2500 HZ SCT020 FEW030CB BKN100 32/26 Q1007 NOSIG=
202309290600 METAR VABB 290600Z 08005KT 2500 HZ SCT018 FEW030CB BKN100 32/26 Q1006 NOSIG=
202309290630 METAR VABB 290630Z 11003KT 2500 HZ SCT018 FEW030CB BKN090 32/27 Q1006 NOSIG=
202309290700 METAR VABB 290700Z 25006KT 2100 BR SCT018 FEW030CB BKN090 31/28 Q1006 NOSIG=
202309290730 METAR VABB 290730Z 30006KT 2100 BR SCT018 FEW030CB BKN090 31/29 Q1005 NOSIG=
202309290800 METAR VABB 290800Z 26006KT 2100 BR SCT018 FEW030CB BKN090 32/28 Q1004 NOSIG=
202309290830 METAR VABB 290830Z 25010KT 2100 BR SCT018 FEW030CB BKN090 33/29 Q1003 NOSIG=
202309290900 METAR VABB 290900Z 29011KT 2100 HZ SCT018 FEW030CB BKN090 34/29 Q1003 NOSIG=
202309290930 METAR VABB 290930Z 31009KT 2200 HZ SCT018 FEW030CB BKN090 32/28 Q1002 NOSIG=
202309291000 METAR VABB 291000Z 33007KT 2500 HZ SCT018 FEW030CB BKN090 31/24 Q1002 TEMPO 1500 SHRA=
202309291030 METAR VABB 291030Z 35009KT 2500 HZ SCT018 FEW030CB BKN090 31/24 Q1002 TEMPO 1500 SHRA=
202309291100 METAR VABB 291100Z 35007KT 2500 HZ SCT018 FEW030CB BKN090 30/26 Q1003 TEMPO 1500 SHRA=
202309291130 METAR VABB 291130Z 00000KT 2500 HZ SCT018 FEW030CB BKN090 30/26 Q1002 NOSIG=
202309291200 METAR VABB 291200Z 34004KT 2500 HZ SCT018 FEW030CB BKN090 31/27 Q1002 NOSIG=
202309291230 METAR VABB 291230Z 04005KT 2100 HZ SCT018 FEW030CB BKN090 30/27 Q1003 TEMPO 1500 SHRA=
202309291300 METAR VABB 291300Z 07007KT 2100 HZ SCT018 FEW030CB BKN090 29/27 Q1004 TEMPO 1500 SHRA=
202309291330 METAR VABB 291330Z 03009G20KT 2200 VCSH SCT018 SCT025 FEW030CB BKN090 27/25 Q1006 TEMPO 1500 SHRA=
202309291400 METAR VABB 291400Z 06010KT 2500 -TSRA SCT018 SCT025 FEW030CB BKN090 26/24 Q1006 TEMPO 1500 TSRA=
202309291430 METAR VABB 291430Z 06006KT 2200 -TSRA SCT012 SCT015 FEW030CB BKN080 26/24 Q1006 TEMPO 1500 TSRA=
202309291500 METAR VABB 291500Z 10005KT 2200 -TSRA SCT012 SCT015 FEW030CB BKN080 26/25 Q1006 TEMPO 1500 TSRA=
202309291530 METAR VABB 291530Z 03006KT 2200 -TSRA SCT012 SCT015 FEW030CB BKN080 26/25 Q1006 TEMPO 1500 TSRA=
202309291600 METAR VABB 291600Z 04004KT 2100 -RA SCT010 SCT015 FEW030CB OVC080 26/25 Q1006 TEMPO 1500 SHRA=
202309291630 METAR VABB 291630Z 05008KT 2100 BR FEW012 SCT018 FEW030CB BKN090 26/25 Q1006 TEMPO 1500 SHRA=
202309291700 METAR VABB 291700Z 05009KT 2200 BR SCT018 FEW030CB BKN090 26/25 Q1006 TEMPO 1500 SHRA=
202309291730 METAR VABB 291730Z 08005KT 2500 BR SCT018 FEW030CB BKN090 27/25 Q1005 NOSIG=
202309291800 METAR VABB 291800Z 11003KT 2500 BR SCT018 FEW025TCU BKN090 27/25 Q1005 NOSIG=
202309291830 METAR VABB 291830Z 00000KT 2500 BR SCT018 FEW025TCU BKN090 27/25 Q1005 NOSIG=
202309291900 METAR VABB 291900Z 11004KT 2500 BR SCT018 FEW025TCU BKN090 27/25 Q1005 NOSIG=
202309291930 METAR VABB 291930Z 12004KT 2500 BR SCT018 FEW025TCU BKN090 27/25 Q1005 NOSIG=
202309292000 METAR VABB 292000Z 00000KT 2500 BR SCT018 FEW025TCU BKN090 27/25 Q1005 NOSIG=
202309292030 METAR VABB 292030Z 00000KT 2500 BR SCT018 FEW025TCU BKN090 27/25 Q1005 NOSIG=
202309292100 METAR VABB 292100Z 01003KT 2500 BR SCT018 FEW025TCU BKN090 27/25 Q1004 NOSIG=
202309292130 METAR VABB 292130Z 00000KT 2500 BR SCT018 FEW025TCU BKN090 27/25 Q1004 NOSIG=
202309292200 METAR VABB 292200Z 00000KT 2500 BR SCT018 FEW025TCU BKN090 27/25 Q1004 NOSIG=
202309292230 METAR VABB 292230Z 03005KT 2500 BR SCT018 FEW025TCU BKN090 27/25 Q1003 NOSIG=
202309292300 METAR VABB 292300Z 03006KT 2500 BR SCT018 FEW025TCU BKN090 27/25 Q1003 NOSIG=
202309292330 METAR VABB 292330Z 04006KT 2500 BR SCT018 FEW025TCU BKN090 27/25 Q1003 NOSIG=
202309300000 METAR VABB 300000Z 06006KT 2500 BR SCT018 FEW025TCU BKN090 27/25 Q1003 NOSIG=
202309300030 METAR VABB 300030Z 07003KT 2500 BR SCT018 FEW025TCU BKN090 27/25 Q1004 NOSIG=
202309300100 METAR VABB 300100Z 10003KT 2500 BR FEW018 SCT025 27/25 Q1005 NOSIG=
202309300130 METAR VABB 300130Z 18003KT 2500 BR FEW018 SCT025 27/25 Q1005 NOSIG=
202309300200 METAR VABB 300200Z 12005KT 2500 BR FEW018 SCT100 27/26 Q1005 NOSIG=
202309300230 METAR VABB 300230Z 07004KT 2500 BR FEW018 SCT100 28/26 Q1006 NOSIG=
202309300300 METAR VABB 300300Z 04004KT 2200 BR SCT018 FEW025TCU BKN100 29/26 Q1006 NOSIG=
202309300330 METAR VABB 300330Z 03007KT 2200 BR SCT018 FEW025TCU BKN100 30/25 Q1006 NOSIG=
202309300400 METAR VABB 300400Z 07009KT 2200 HZ SCT018 BKN100 30/25 Q1006 NOSIG=
202309300430 METAR VABB 300430Z 08006KT 2500 HZ SCT020 BKN100 32/26 Q1007 NOSIG=
202309300500 METAR VABB 300500Z 04008KT 2500 HZ SCT020 BKN100 32/26 Q1007 NOSIG=
202309300530 METAR VABB 300530Z 06005KT 2500 HZ SCT020 BKN100 32/25 Q1006 NOSIG=
202309300600 METAR VABB 300600Z 07007KT 2500 HZ SCT020 BKN100 32/25 Q1006 NOSIG=
202309300630 METAR VABB 300630Z 02006KT 2500 HZ SCT020 SCT025 BKN100 33/25 Q1006 NOSIG=
202309300700 METAR VABB 300700Z 01007KT 2500 HZ SCT020 SCT025 BKN100 33/25 Q1005 NOSIG=
202309300730 METAR VABB 300730Z 30007KT 2500 HZ SCT020 SCT025 BKN100 33/26 Q1005 NOSIG=
202309300800 METAR VABB 300800Z 04007KT 2500 HZ SCT020 SCT025 BKN100 33/25 Q1004 NOSIG=
202309300830 METAR VABB 300830Z 04008KT 2500 HZ SCT020 SCT025 BKN100 33/25 Q1004 NOSIG=
202309300900 METAR VABB 300900Z 02009KT 3000 HZ SCT020 SCT025 BKN100 33/25 Q1003 NOSIG=
202309300930 METAR VABB 300930Z 34007KT 3000 HZ SCT020 SCT025 BKN100 33/26 Q1003 NOSIG=
202309301000 METAR VABB 301000Z 30007KT 3000 HZ SCT020 SCT025 BKN100 32/27 Q1002 NOSIG=
202309301030 METAR VABB 301030Z 33008KT 3000 HZ SCT020 SCT025 BKN100 32/27 Q1002 NOSIG=
202309301100 METAR VABB 301100Z 29006KT 3000 HZ SCT020 FEW025TCU BKN100 32/27 Q1002 NOSIG=
202309301130 METAR VABB 301130Z 35006KT 3000 HZ SCT020 FEW025TCU BKN100 32/27 Q1003 NOSIG=
202309301200 METAR VABB 301200Z 36004KT 2500 HZ SCT020 FEW025TCU BKN100 31/27 Q1003 NOSIG=
202309301230 METAR VABB 301230Z 02006KT 2500 HZ SCT020 FEW025TCU BKN100 31/28 Q1003 NOSIG=
202309301300 METAR VABB 301300Z 01006KT 2100 HZ SCT020 FEW025TCU BKN100 31/29 Q1003 NOSIG=
202309301330 METAR VABB 301330Z 06009G19KT 2500 HZ SCT020 FEW030CB BKN100 31/28 Q1004 NOSIG=
202309301400 METAR VABB 301400Z 06010G20KT 2500 -TSRA SCT018 FEW030CB BKN090 28/25 Q1004 TEMPO 1500 TSRA=
202309301430 METAR VABB 301430Z 06010G20KT 2500 -TSRA SCT018 FEW030CB BKN090 27/25 Q1004 TEMPO 1500 TSRA=
202309301500 METAR VABB 301500Z 11005KT 2500 -TSRA SCT018 FEW030CB BKN090 27/25 Q1005 TEMPO 1500 TSRA=
202309301530 METAR VABB 301530Z 16005KT 2500 -RA SCT018 FEW030CB BKN090 27/25 Q1005 TEMPO 1500 SHRA=
202309301600 METAR VABB 301600Z 17006KT 2100 -RA SCT018 FEW030CB BKN090 27/25 Q1006 TEMPO 1500 SHRA=
202309301630 METAR VABB 301630Z 11003KT 2100 BR SCT018 FEW030CB BKN090 27/26 Q1006 TEMPO 1500 SHRA=
202309301700 METAR VABB 301700Z 22003KT 2100 -RA SCT018 FEW030CB BKN090 27/26 Q1006 TEMPO 1500 SHRA=
202309301730 METAR VABB 301730Z 30006KT 2100 -RA FEW010 SCT018 FEW030CB BKN090 27/26 Q1006 TEMPO 1500 SHRA=
202309301800 METAR VABB 301800Z 28006KT 2100 VCSH SCT018 FEW030CB BKN090 27/25 Q1006 TEMPO 1500 SHRA=
202309301830 METAR VABB 301830Z 25004KT 2100 BR SCT018 FEW030CB BKN090 27/25 Q1005 TEMPO 1500 SHRA=
202309301900 METAR VABB 301900Z 17004KT 2100 BR SCT018 FEW030CB BKN090 27/25 Q1005 NOSIG=
202309301930 METAR VABB 301930Z 16005KT 2100 BR SCT018 FEW030CB BKN090 27/25 Q1005 NOSIG=
202309302000 METAR VABB 302000Z 14007KT 2100 -RA SCT018 FEW030CB BKN090 27/26 Q1006 TEMPO 1500 SHRA=
202309302030 METAR VABB 302030Z 14008KT 2100 -RA FEW010 SCT018 FEW030CB BKN090 26/25 Q1006 TEMPO 1500 SHRA=
202309302100 METAR VABB 302100Z 17005KT 2100 -RA FEW010 SCT018 FEW030CB BKN090 26/25 Q1006 TEMPO 1500 SHRA=
202309302130 METAR VABB 302130Z 00000KT 2100 -RA FEW010 SCT018 FEW030CB BKN090 26/25 Q1005 TEMPO 1500 SHRA=
202309302200 METAR VABB 302200Z 00000KT 2100 -RA FEW010 SCT018 FEW030CB BKN090 26/25 Q1005 TEMPO 1500 SHRA=
202309302230 METAR VABB 302230Z 29003KT 2100 -RA FEW010 SCT018 FEW030CB BKN090 26/26 Q1005 TEMPO 1500 SHRA=
202309302300 METAR VABB 302300Z 26004KT 2100 -RA FEW010 SCT018 FEW030CB BKN090 26/26 Q1005 TEMPO 1500 SHRA=
202309302330 METAR VABB 302330Z 00000KT 2100 -RA FEW010 SCT018 FEW030CB BKN090 27/26 Q1005 TEMPO 1500 SHRA=
202310010000 METAR VABB 010000Z 00000KT 2100 -RA FEW010 SCT018 FEW030CB BKN090 26/26 Q1005 TEMPO 1500 SHRA=
202310010030 METAR VABB 010030Z 04004KT 2100 VCSH FEW010 SCT018 FEW030CB BKN090 27/27 Q1005 TEMPO 1500 SHRA=
202310010100 METAR VABB 010100Z 10004KT 2100 BR SCT018 FEW025TCU BKN090 27/27 Q1005 TEMPO 1500 SHRA=
202310010130 METAR VABB 010130Z 16003KT 2100 BR SCT018 FEW025TCU BKN090 27/27 Q1006 TEMPO 1500 SHRA=
202310010200 METAR VABB 010200Z 14004KT 2100 BR SCT018 FEW025TCU BKN090 27/27 Q1006 TEMPO 1500 SHRA=
202310010230 METAR VABB 010230Z 12004KT 1800 BR SCT018 FEW025TCU BKN090 27/27 Q1006 TEMPO 1500 SHRA=
202310010300 METAR VABB 010300Z 16003KT 1800 BR SCT018 FEW030CB BKN090 27/27 Q1006 NOSIG=
202310010330 METAR VABB 010330Z 14005KT 2000 BR SCT018 FEW030CB BKN090 28/27 Q1007 NOSIG=
